,Name,Zip code,latitude,longitude
0,She's Not Here,78701,30.2656463300085,-97.7483603730798
1,Gotham,78702,30.25889,-97.7258
2,Edge Rooftop Pool Bar,78701,30.2643864129296,-97.7436428743045
3,The Roosevelt Room,78701,30.2677,-97.74627
4,Nickle City,78702,30.26856,-97.7281
5,Firehouse Lounge,78701,30.268173,-97.741043
6,Skylark Lounge,78722,30.2846205,-97.70491
7,The Good Life Bar Bar,78701,30.2665700053185,-97.7415906351087
8,Night Owl,78757,30.3640100887497,-97.7284658807284
9,Draught House Pub & Brewery,78756,30.31098,-97.74283
10,Whisler's,78702,30.2619673762692,-97.7226847531614
11,Dive Bar and Lounge,78701,30.2798841,-97.7421312
12,HandleBar,78701,30.26661,-97.74204
13,Attabar,78702,30.26429,-97.7292
14,The Wheel,78702,30.280246473018,-97.7208685643035
15,Barfly's,78751,30.3167018890381,-97.7141571044922
16,Workhorse Bar,78751,30.31771,-97.721675
17,Back Lot,78705,30.30189,-97.73936
18,Craft Pride,78701,30.257925,-97.738777
19,The Butterfly Bar,78722,30.28442,-97.71744
20,The Barn,78745,30.221052,-97.82653
21,The Tigress Pub,78751,30.317891,-97.722182
22,Lala's,78757,30.3446,-97.73649
23,The Rusty Mule,78736,30.2312371513822,-97.927311988385
24,Hideaway Kitchen & Bar,78744,30.21165,-97.75281
25,Texas Mist,78742,30.22859,-97.68042
26,Techo Mezcaleria & Agave Bar,78722,30.28412,-97.7189099
27,Knomad Bar,78723,30.312658,-97.704584
28,Mugshots,78701,30.2676,-97.73849
29,The Mean Eyed Cat,78703,30.27452,-97.76496
30,Violet Crown Social Club,78702,30.26426,-97.73078
31,Full Circle Bar,78702,30.27392,-97.72037
32,Baretto,78759,30.398676,-97.749059
33,Mort Subite,78701,30.265719,-97.7439904
34,Drink Well,78751,30.31728,-97.72062
35,Lucille,78701,30.25872,-97.73848
36,Yard Bar,78757,30.34303,-97.73921
37,Hideout Pub,78758,30.4125127501726,-97.7096274135108
38,Hole in the Wall,78705,30.29005,-97.74161
39,The Jackalope,78701,30.26732,-97.73892
40,Midnight Cowboy,78701,30.266983,-97.740028
41,The Little Darlin',78745,30.19448,-97.77681
42,Half Step,78701,30.2583942,-97.7385891
43,Royal Jelly,78752,30.3391,-97.71703
44,The Market and Tap Room,78701,30.2663307,-97.7447205
45,One-2-One Bar,78704,30.2519187927246,-97.7635116577148
46,Scoreboard,78750,30.36958,-97.80005
47,MacGuffins,78746,30.3276711,-97.8107529
48,Academia,78701,30.2668741300305,-97.7453676983714
49,Azul Rooftop Pool Bar + Lounge,78701,30.266635,-97.740319
0,Dry Creek Cafe & Boat Dock,78731,30.33267,-97.77661
1,Deep Eddy Cabaret,78703,30.2778909,-97.7724955
2,Garage,78701,30.2676758046831,-97.7440973042297
3,C-Hunt's Icehouse,78758,30.37925,-97.72395
4,Tiniest Bar in Texas,78703,30.2694944344825,-97.7531080700845
5,The Secret Bar,78701,30.26535,-97.74671
6,Clive Bar,78701,30.2600536346436,-97.7385940551758
7,SquareRut Kava Bar,78704,30.2619680504078,-97.7618099749088
8,Stinson's,78756,30.3151275,-97.7417583
9,Hard Luck Lounge,78702,30.2564602,-97.701889
10,The Gatsby Austin,78701,30.266348,-97.7355259
11,College RoadHouse,78753,30.3646543475126,-97.6943624764681
12,The Little Longhorn Saloon,78756,30.329585,-97.740064
13,The Beer Plant,78703,30.2965180811856,-97.7678042803603
14,The Lost Well,78702,30.262714805058,-97.7145181439692
15,Eberly,78704,30.2587887974766,-97.7587449596709
16,Stay Gold,78702,30.2570762634277,-97.7237091064453
17,Pour Choices,78701,30.2669479091807,-97.73925183345
18,Lavaca Street Bar,78704,30.2416474,-97.7848149
19,Nightcap,78703,30.27371,-97.76045
20,Nosh & Bevvy,78757,30.3654772101226,-97.7288885435165
21,Hopfields,78705,30.2985538576336,-97.7409893637848
22,Continental Club,78704,30.2504978179932,-97.7490234375
23,Corner,78701,30.264545,-97.74329
24,8 Track,78722,30.28511,-97.71164
25,Watertrade,78704,30.2473650623443,-97.75011587888
26,Small Victory,78701,30.2689112,-97.7416833
27,The Local Post Pub,78757,30.3471009,-97.7346893
28,Cheer Up Charlie's,78701,30.2696098,-97.7363583
29,Icenhauer's,78701,30.25936,-97.73824
30,Parlor and Yard,78701,30.26946,-97.74875
31,Container Bar,78701,30.2602724972382,-97.7384885028005
32,Lustre Pearl East,78702,30.2530237536547,-97.7107933120138
33,Arlo Grey,78701,30.26278,-97.74396
34,Aviary Wine & Kitchen,78704,30.24824,-97.7715
35,Revelry Kitchen + Bar,78702,30.2637173006037,-97.7277220894538
36,508 - Tequila Bar,78701,30.2686,-97.73665
37,WhichCraft Tap Room & Bottle Shop,78723,30.2970963,-97.7043831
38,Casino South Side Lounge,78704,30.228897,-97.782318
39,Jade Room,78704,30.243746,-97.752289
40,Carousel Lounge,78723,30.30988,-97.7082
41,Crown and Anchor Pub,78705,30.2924600026945,-97.7357137160887
42,Kitty Cohen's,78702,30.2618179321289,-97.7163848876953
43,Vigilante Gaming Bar,78752,30.3394025962971,-97.7183186262846
44,Bender Bar & Grill,78798,30.2242720206809,-97.7673519325409
45,Oasthouse Kitchen + Bar,78726,30.4224100300212,-97.8465196011887
46,Las Perlas,78701,30.26766,-97.73864
47,The Driskill Bar,78701,30.26807,-97.74168
48,King Bee Lounge,78702,30.2740546417273,-97.7197040731558
49,The Liberty,78702,30.2626674,-97.7251338
50,Craftsman,78702,30.25692,-97.7234
51,Corner Bar,78704,30.249415,-97.766958
52,Growler USA - Austin,78705,30.2955795,-97.7434722
53,Knotty Deck & Bar,78759,30.3916541687047,-97.7499180085005
54,Easy Tiger,78701,30.2658004760742,-97.7356872558594
55,Backspin texas Sports Bar & Grill,78737,30.19815,-97.98446
56,Shangri-La,78702,30.2649360275368,-97.7316098818593
57,Pete's Dueling Piano Bar,78701,30.266916118202,-97.7386209368706
58,Rhino Room,78702,30.26511,-97.73171
59,Drinks Lounge,78702,30.25652,-97.72322
60,Indian Roller,78748,30.1720381977696,-97.8253055736423
61,W XYZ Bar,78717,30.47561,-97.80106
62,Yellow Jacket Social Club,78702,30.26159,-97.72456
63,Apt 115,78702,30.2616,-97.71982
64,Texas Street Grill,78734,30.39639,-97.93134
65,The Brixton,78702,30.2635168,-97.7275935
66,Donn's Depot,78703,30.27413,-97.76333
67,School House Pub,78722,30.284213,-97.718819
68,Rusty Cannon Pub,78745,30.20985,-97.7820799
69,Buck Wild,78701,30.2674616425138,-97.7400218527087
70,The Townsend,78701,30.26978,-97.74263
71,Boiler Nine,78701,30.266862,-97.752903
72,The Local Outpost Saloon,78729,30.445718,-97.778274
73,Giddy Ups,78748,30.1438891,-97.8336148981476
74,The Mill Bar & Grill,78729,30.45227,-97.78107
75,Seven Grand,78701,30.26766,-97.73864
76,Gibson Bar,78704,30.25502,-97.76177
77,The Side Bar,78701,30.26752,-97.73643
78,Buddy's Place,78757,30.36906,-97.72721
79,Rustic Tap,78701,30.269679,-97.749197
80,The Cloak Room,78701,30.2756075728875,-97.7420997619629
81,G Bar and Bistro,78744,30.2125737,-97.7053511
82,The White Horse,78702,30.262545,-97.727024
83,Shiner's Saloon,78701,30.267053604126,-97.743537902832
84,Waller Creek Pub House,78701,30.2664203643799,-97.7357711791992
85,C-Boys Heart & Soul,78704,30.243746,-97.752289
86,St. Roch's Bar,78702,30.25862,-97.7146099
87,Marker 10,78704,30.2609943392122,-97.7468085110451
88,Growler Room,78757,30.34439,-97.73853
89,Casa de Montecristo,78746,30.33636,-97.8051799
90,Little Woodrow's Tech Ridge,78753,30.40014,-97.65851
91,Haymaker,78722,30.28479,-97.71757
92,The Jackalope South Shore,78741,30.2404842376709,-97.7261352539062
93,EastSide Tavern,78702,30.2589905157159,-97.7287379999974
94,The Eleanor,78701,30.2677,-97.74627
95,Dozen Street,78702,30.2738603,-97.7203803
96,Péché,78701,30.266988,-97.745231
97,Twin Creeks Hall,78726,30.44607,-97.8613699
98,Prohibition Creamery,78702,30.26422,-97.72763
99,Moonfire Lounge,78701,30.26611,-97.74516
100,The Golden Goose,78704,30.2492562575998,-97.7689180730169
101,Whip In,78704,30.2379359562403,-97.7394390106201
102,CU29 Cocktail Bar,78701,30.269103,-97.741214
103,Bungalow,78701,30.2604572574835,-97.738516330719
104,Irene's,78701,30.269838,-97.751213
105,SquareRüt Kava Bar,78756,30.31866,-97.73144
106,Dirty Bill's,78701,30.2696075439453,-97.749397277832
107,Odd Duck,78704,30.25452,-97.762064
108,Contigo,78723,30.28804,-97.70335
109,Casino El Camino,78701,30.26636,-97.7377
110,Speakeasy,78701,30.266847,-97.743725
111,Upstairs at Caroline,78701,30.26873,-97.74217
112,The Aristocrat Lounge,78757,30.3402309,-97.7385864
113,Pour House Pub,78757,30.34264,-97.738
114,La Perla,78702,30.2633686065674,-97.7266006469727
115,Zilker Brewing Company and Taproom,78702,30.262096,-97.72454
116,Banger's Sausage House & Beer Garden,78701,30.2590157575754,-97.7385085889549
117,Pour House Pints And Pies,78759,30.4228443049482,-97.7553981431361
118,Weather Up,78702,30.2573650267811,-97.7249485249197
119,Cosmic Coffee + Beer Garden,78704,30.2274,-97.76272
120,Kicked Up Grub,78704,30.2407,-97.78598
121,Moontower Saloon,78748,30.1693172454834,-97.8266754150391
122,Soco Bar & Bites,78704,30.25849,-97.74729
123,Hi Hat Public House,78702,30.26023,-97.71893
124,L'estelle House,78701,30.2599341625746,-97.7384599763706
125,St Elmo Brewing Company,78745,30.2174492910035,-97.7610477949677
126,Pitchfork Pretty,78702,30.25343,-97.71351
127,Turntable Eatery,78751,30.31281,-97.7150599
128,Buckshot,78701,30.26714,-97.73833
129,Black Star Co-op Pub & Brewery,78752,30.3381716531677,-97.7188450098038
130,Roscoe's Bar,78705,30.2886981964111,-97.748176574707
131,Love Goat,78705,30.29283,-97.7417399
132,Forthright,78701,30.2623732844951,-97.743445
133,Barley Swine,78757,30.3412737661652,-97.7383886364151
134,Beachside Billys,78641,30.440785,-97.914837
135,Mister Tramps Sports Pub and Café,78758,30.3614513838757,-97.7162416375759
136,Javelina,78701,30.258020401001,-97.7388458251953
137,Gourmands Neighborhood Pub,78702,30.26265,-97.71539
138,The Alibi,78701,30.26083,-97.73825
139,Ego's,78704,30.25628,-97.74761
140,Two Bucks,78701,30.2664604187012,-97.7381134033203
141,Buford's Backyard Beer Garden,78701,30.2702396,-97.7497159
142,Billy's on Burnet,78756,30.3220291137695,-97.7397613525391
143,Yard House,78758,30.4053,-97.72308
144,Spider House Ballroom,78705,30.2953743,-97.7420442
145,Vino Vino,78751,30.3069966,-97.7352997
146,The Drag Bar,78705,30.28708,-97.74186
147,Rosewood,78702,30.26835,-97.72626
148,Mohawk,78701,30.2701302,-97.7359046
149,The Dogwood,78701,30.26988,-97.75028
150,Better Half Coffee & Cocktails,78703,30.27137,-97.75839
151,The Vortex,78722,30.2844663602444,-97.7175722159386
152,Lustre Pearl,78701,30.2606455716823,-97.7382776743979
153,Boulevard Grill and Sports Bar,78731,30.355045,-97.755592
154,Lenoir,78704,30.24686,-97.75586
155,BD Riley's Irish Pub at Mueller,78723,30.2982552810187,-97.7049514541841
156,Boomerz,78735,30.2363456598715,-97.8561775190617
157,Perla's,78704,30.2499652289007,-97.7499698671015
158,Guild,78756,30.3060027879118,-97.7431749925017
159,Ernie's Dockside Lake Travis,78734,30.43169,-97.94077
160,San Jac Saloon,78701,30.2675819396973,-97.7401580810547
161,Texas Club Bar & Grill,78744,30.2119300039385,-97.7296185185185
162,Cactus Cafe,78713,30.2861233893208,-97.7410697937012
163,Wright Bros Brew & Brew,78702,30.2642705386769,-97.7330322191119
164,Central Standard,78704,30.2474,-97.75006
165,Kick Butt Café,78752,30.3221788205653,-97.7138607718277
166,Geraldine's,78701,30.26029,-97.73927
167,Mattie's,78704,30.244963,-97.762289
168,Unbarlievable,78701,30.25891,-97.73896
169,Las Palomas Restaurant & Bar,78746,30.271881,-97.800071
170,Sahara Lounge,78721,30.2795716,-97.68159
171,La Holly,78702,30.2591865899542,-97.7144455556234
172,Texas Sake,78751,30.32317,-97.72758
173,Cover 3,78703,30.2761773651651,-97.7656084588242
174,Thirsty Turtle,78753,30.42419,-97.66973
175,Rules & Regs,78701,30.26198,-97.73862
176,The Brass Tap,78758,30.3955359,-97.7270049
177,Stephen F's Bar & Terrace,78701,30.2691040039062,-97.7419586181641
178,Barrel O' Fun,78723,30.2981137997144,-97.7049248933204
179,Scoot Inn,78702,30.2621159638853,-97.7294136738124
180,'Bout Time II,78752,30.32777,-97.70421
181,Cain and Abel's,78705,30.28768,-97.74448
182,Black Sheep Lodge,78704,30.24837,-97.77118
183,Moloko,78702,30.2738,-97.7201
184,Spokesman,78745,30.2164715,-97.7618791
185,Toss Pizzeria & Pub,78704,30.2363363,-97.762862
186,Marshall's Tavern,78729,30.443876,-97.775756
187,Tellers,78701,30.26762,-97.73889
188,Russian House,78701,30.26603,-97.74023
189,Swift's Attic,78701,30.26563,-97.74337
190,Oasis Texas Brewing Company,78732,30.40615,-97.87492
191,Spider House Cafe & Ballroom,78705,30.295505,-97.741761
192,Auguste & Marcel,78704,30.24653,-97.75109
193,El Chipirón,78704,30.2432095786234,-97.7811677724685
194,Detour,78758,30.39442,-97.72019
195,Parlor Room,78701,30.2596676325079,-97.7386219853414
196,Salty Sow,78722,30.2836497259461,-97.7213180065155
197,Happy Chicks,78701,30.267617,-97.740781
198,Vaquero's Cafe and Cantina,78746,30.27087,-97.81717
199,Culinary Dropout,78758,30.403653,-97.721503
200,Jack & Gingers,78758,30.4011283513491,-97.7228807096988
201,Wilder Wood Restaurant & Bar,78702,30.26517,-97.72859
202,The 04 Lounge,78704,30.2257133520068,-97.762843803094
203,The Ginger Man,78701,30.2672824859619,-97.7462768554688
204,BaseCamp,78701,30.267578125,-97.7438735961914
205,Pool Burger,78703,30.2778,-97.7725899
206,Parmer Lane Tavern,78727,30.4154010136868,-97.6964487108368
207,Backspin Texas Sports Bar & Grill,78737,30.200723958811,-97.8645905479789
208,The Local Pub and Patio,78705,30.2915658,-97.7414793
209,Gourdough's Public House,78704,30.245382,-97.780437
210,The Continental Club Gallery,78704,30.25059,-97.7490399
211,Li'l Nonna's,78741,30.2416820526123,-97.7268676757812
212,Cover 3,78757,30.3586849562721,-97.7350158670119
213,Warehouse Billiard Bar,78704,30.2185592651367,-97.757682800293
214,Mezcalería Tobalá,78702,30.2620067596436,-97.7225952148438
215,Sophia's,78701,30.26955,-97.74751
216,Austin Taco Project,78701,30.26506,-97.73862
217,Holy Roller,78701,30.26948,-97.74943
218,Kung Fu Saloon,78701,30.2703265,-97.7502847
219,W XYZ Bar,78758,30.4028119241257,-97.7237724701505
220,Scholz Garten,78701,30.2773110437902,-97.7365262639869
221,Texas Reds and Whites Tasting Room,78701,30.26487,-97.73762
222,The Library Bar,78701,30.2667407989502,-97.7390823364258
223,The Rooftop Bar,78701,30.26678,-97.73917
224,Tacos and Tequila,78703,30.2727939974674,-97.7606394828728
225,Visconti Ristorante & Bar,78746,30.30194,-97.82954
226,The Eastern,78702,30.26287,-97.72682
227,Abel's On the Lake,78703,30.29493,-97.78381
228,Key Bar,78701,30.26972,-97.74934
229,Star Bar,78701,30.2698824290103,-97.748554037788
230,Batch - Craft Beer and Kolaches,78723,30.2871694082172,-97.7031195536256
231,Kinda Tropical,78702,30.2568019517852,-97.7029324695468
232,Red's Porch,78759,30.400058,-97.739168
233,Somersault Innovative Cocktails,78758,30.4029154,-97.7236497
234,District Kitchen & Cocktails,78749,30.2014264170508,-97.8796087791679
235,Fogueira Gaúcha Brazilian Steakhouse,78681,30.489251,-97.680032
236,Draft Shack Oyster Bar,78758,30.4062692,-97.7202672
237,Hops and Grain,78702,30.25832541205,-97.7117743072167
238,Hudson Tavern,78734,30.412,-97.92722
239,Justine's Brasserie,78702,30.253236,-97.700576
240,Sake Mama,78701,30.26635,-97.73763
241,Freedmen's,78705,30.288439,-97.747897
242,Eureka!,78701,30.2678427491661,-97.7412401139736
243,400 Rabbits Bar,78739,30.199722,-97.869529
244,Wicked Backyard,78748,30.156761,-97.792378
245,Cover 2,78750,30.457156,-97.791483
246,Hangar Lounge,78701,30.266504262,-97.745026801
247,Texas Chili Parlor,78701,30.2768182754517,-97.7421728521585
248,Cedar Street Courtyard,78701,30.2669887542725,-97.745231628418
249,Tillery Kitchen and Bar,78702,30.25153,-97.70872
250,Bucket's Deli and Sports Bar,78702,30.25666,-97.72272
251,Barton Springs Saloon,78704,30.26133,-97.75879
252,Winebelly,78704,30.24141,-97.75892
253,Mandala Kitchen & Bar,78704,30.2558810087551,-97.7628875523806
254,Beerland,78701,30.2678058377023,-97.7365219064921
255,Lakeway's Speakeasy and Cigar Bar,78734,30.34999,-97.96471
256,Taco Flats,78756,30.330914,-97.740225
257,Nuvola Bar,78701,30.2669,-97.74289
258,Sellers,78701,30.2666132238106,-97.7454840391874
259,Summit Rooftop Lounge,78701,30.267579,-97.743872
260,G&S Lounge,78704,30.24135,-97.76046
261,Rio Rita,78702,30.27413,-97.7198
262,Soto - South Lamar,78704,30.25576,-97.76252
263,The Grand,78751,30.3060894012451,-97.7152328491211
264,Lavaca Street Bar,78701,30.26712,-97.74559
265,Barracuda,78701,30.26717,-97.7365
266,The Cavalier,78702,30.262942,-97.714676
267,Lavaca Street Bar At Rock Rose,78758,30.4005886869507,-97.723215790346
268,Little Woodrow's ,78756,30.329127876655,-97.7395716792886
269,The Rattle Inn,78701,30.27033,-97.74844
270,Lin Asian Bar And Dim Sum,78703,30.27281,-97.75799
271,Dirty Dog Bar,78798,30.26645,-97.73801
272,Bike & Brew ATX,78702,30.25841,-97.71143
273,Houndstooth Coffee,78702,30.2814468098981,-97.7095832100541
274,Blind Pig Pub,78701,30.2669372558594,-97.7398681640625
275,290 West Club,78737,30.2106547082446,-97.9688636691003
276,Halcyon,78701,30.2669600634204,-97.7457208584112
277,Wild Kitchen And Bar,78669,30.3480007073344,-98.0574777230884
278,Sundancer Grill,78734,30.381445,-97.9596972
279,Frank,78701,30.2668892772151,-97.7444967258494
280,Doc's Motorworks 38th,78705,30.3059953,-97.7443195
281,Green Light Social,78701,30.2703808804593,-97.7503718697005
282,Edwin's Sports Bar,78701,30.26628,-97.73585
283,Castro's Bar and Grill,78734,30.35478,-97.961337
284,The Grackle,78702,30.26258,-97.72417
285,The Grove Wine Bar & Kitchen,78746,30.2963184857946,-97.8328549861908
286,The East End On 7th,78702,30.2568492,-97.7023407
287,The Highball,78704,30.2561289911694,-97.7632124508172
288,Loro,78704,30.24775,-97.77127
289,Old Thousand,78702,30.26962,-97.72992
290,Violet Crown Cinema,78701,30.26554,-97.74806
291,Burnside's Tavern,78701,30.2668989919451,-97.7389753428766
292,Antone's Nightclub,78701,30.2660523,-97.7403876
293,The League Kitchen And Tavern,78737,30.2063769,-97.9761169
294,Lynx Bar and Grill,78723,30.31944,-97.70657
295,The Detour,78735,30.2335573,-97.8661206
296,Volstead Lounge,78702,30.2581775581538,-97.7148056030273
297,Hookah Buzz,78759,30.4175368500966,-97.7456080926093
298,Touche',78701,30.26666,-97.73875
299,Olamaie,78701,30.2798862457275,-97.7436752319336
300,BD Riley's Irish Pub Downtown,78701,30.267778,-97.741059
301,LUX ,78701,30.2696516128734,-97.7493387614233
302,The Saxon Pub,78704,30.2536067962646,-97.7634658813477
303,OK Corral,78704,30.22652,-97.77042
304,Chuy's,78704,30.263803,-97.763323
305,Spinners Bar & Grill,78728,30.4308064883808,-97.6713193
306,Valhalla,78701,30.26806,-97.73684
307,Halcyon,78723,30.29812,-97.70533
308,Hanovers 2.0,78728,30.47609,-97.67361
309,Atrium Lounge,78701,30.268984,-97.740336
310,Posse East,78705,30.29142,-97.73465
311,Stella Public House,78723,30.2978198875665,-97.7055143730163
312,Jack Allen's Kitchen,78757,30.3612,-97.73943
313,Juliet Italian Kitchen,78704,30.26184,-97.76006
314,Moon River Bar & Grill,78733,30.3257676051843,-97.8820037841797
315,The Dizzy Rooster,78799,30.2671,-97.74024
316,Maggie Mae's,78701,30.2670273,-97.7397009
317,The Parlor,78751,30.30873,-97.73406
318,The Rotten Bunch,78717,30.4984434463754,-97.777564941803
319,Hotel Vegas,78702,30.26352,-97.72711
320,Radio Coffee & Beer,78704,30.231538,-97.787778
321,St. Genevieve,78758,30.4013526371326,-97.7228714453827
322,Noa Noa Bar & Grill,78702,30.256955,-97.702231
323,Baker St. Pub & Grill,78704,30.2418,-97.78381
324,Shady Grove,78704,30.262983,-97.76193
325,Launderette,78702,30.25193,-97.72273
326,Last Straw,78702,30.26167,-97.72154
327,Licha's Cantina,78702,30.264108,-97.728966
328,The Growler Bar,78660,30.4491784677329,-97.6066342276654
329,Little Woodrow's - Southpark Meadows,78748,30.166004,-97.793306
330,The Common Interest,78757,30.366182,-97.728973
331,Trifecta On 3rd,78701,30.26744,-97.74941
332,The Water Trough at Lone Star Court,78758,30.3953578,-97.7262403
333,Mour Cafe,78741,30.2435537462959,-97.7287131894612
334,The Tavern,78703,30.277075,-97.7511169
335,Soma Lounge,78701,30.267708,-97.74627
336,L'Oca d'Oro,78723,30.297251,-97.704674
337,The Iron Bear,78701,30.270101419529,-97.7432864219643
338,Dolce Vita,78751,30.30489,-97.72621
339,Texas Bar & Grill,78728,30.45037,-97.694688
340,Balkan Cafe & Grill,78753,30.3876,-97.68399
341,Punch Bowl Social Austin,78758,30.400207432783,-97.725505609787
342,The Grove Wine Bar & Kitchen,78701,30.27102,-97.750691
343,National Karaoke League - Austin Division,78704,30.266515,-97.745681
344,Josey's Bar and Grill,78734,30.37435,-97.98705
345,House Wine,78704,30.26194,-97.75894
346,Ah Sing Den,78702,30.26485,-97.7313
347,The Park on South Lamar,78704,30.2363116,-97.7934158
348,Barley Bean,78704,30.23962,-97.78914
349,Gino's Vino Osteria,78723,30.307265,-97.706995
350,The Chugging Monkey,78701,30.26722,-97.74078
351,Second Bar + Kitchen,78758,30.4023750200579,-97.721345834434
352,Deckhand Oyster Bar - South,78704,30.2350720320656,-97.7933467962823
353,Hudson's Hill Country,78734,30.396299,-97.93184
354,Sway,78704,30.250142,-97.754556
355,Uchi,78704,30.25754,-97.75981
356,Stonehouse Coffee & Bar,78704,30.2552525364648,-97.7617144054383
357,Eden East,78702,30.2578792675725,-97.7002314099258
358,Little Woodrow's West 6th St.,78701,30.26978,-97.7480999
359,Fukumoto Sushi & Yakitori,78702,30.2647051303186,-97.731695353373
360,Coffee Shark,78730,30.371913,-97.802155
361,Swan Dive,78701,30.267126,-97.7365839
362,Friends Bar,78701,30.26777,-97.7407999
363,Le Politique,78701,30.26534,-97.74905
364,Let Them Talk Bar,78717,30.47998,-97.80108
365,Hillside Farmacy,78702,30.2680931091309,-97.7269134521484
366,Cafe Blue - Downtown,78701,30.26365,-97.74084
367,Stardust Club,78748,30.14572,-97.83355
368,Come and Take It Live,78741,30.24022,-97.72808
369,Pluckers,78705,30.2862846755023,-97.7449311760574
370,Highland,78701,30.2670059204102,-97.7449569702148
371,The Lobby Lounge,78701,30.26232,-97.74232
372,Living Room Lounge - W Hotel Austin,78701,30.26535,-97.74671
373,The Rooftop Bar,78705,30.29283,-97.7417399
374,Waterloo Ice House N Capital of TX Highway,78731,30.3608333,-97.7893752
375,Bikinis Sports Bar & Grill,78701,30.26778,-97.74073
376,Italic,78701,30.2682,-97.74402
377,Ethics Music Lounge,78701,30.2670490323692,-97.7435471490026
378,Shooters Billiards & Sports Bar,78726,30.4538250316612,-97.829001108004
379,Shenanigans Night Club,78729,30.44644,-97.77896
380,Zax Restaurant & Bar,78704,30.2589030496681,-97.7483948687172
381,77 Degrees Rooftop,78758,30.401316057136,-97.7232357692984
382,Clearport,78701,30.2667080057076,-97.7375103914017
383,Doc B's Fresh Kitchen,78758,30.402758,-97.719745
384,The Water Tank,78729,30.434814453125,-97.7667236328125
385,Coyote Ugly,78701,30.2664833068848,-97.7381896972656
386,El Mercado,78701,30.27973,-97.74147
387,Raggedy Anne's,78728,30.4359607696533,-97.6840057373047
388,Cuvée Coffee Bar,78702,30.261483,-97.720973
389,Eurasia Sushi Bar & Seafood,78735,30.23473,-97.87769
390,June's,78704,30.2463083255216,-97.7511458576444
391,The North Door,78702,30.2645699,-97.7339388
392,Dakota Lounge,78701,30.26859,-97.74566
393,Anderson Mill Pub,78750,30.4465141296387,-97.8056259155273
394,III Forks,78701,30.26435,-97.74676
395,The League Kitchen & Tavern,78717,30.4977090461029,-97.7737116701834
396,Margaritaville,,30.282148,-97.74497
397,Cheers Shot Bar,78701,30.2672,-97.73854
398,Threadgill's,78704,30.2583831730437,-97.7485205293009
399,Paris Hookah Lounge,78758,30.3794915,-97.7126344
400,Parish,78701,30.267593,-97.740823
401,Concrete Cowboy,78701,30.270074128333,-97.750461339859
402,Flamingo Cantina,78701,30.26639,-97.73777
403,Aussie's Grill & Beach Bar,78704,30.25898,-97.74808
404,Vulcan Gas Company,78701,30.267162322998,-97.7384643554688
405,Darwin's Pub,78701,30.2671718597412,-97.7406845092773
406,Glass Half Full,78717,30.47594,-97.80257
407,Midtown Live Sports Cafe,78752,30.3292980194092,-97.6904373168945
408,Rewind,78741,30.4758816,-97.6731567
409,Mi Madre's,78722,30.28412,-97.7189099
410,The Compound,78702,30.2622196823359,-97.7301733195782
411,Bolivar Cigar Lounge,78701,30.26249,-97.74177
412,Copper Top Tavern,78681,30.4892134397805,-97.7300692386678
413,Lonesome Dove Western Bistro,78701,30.2673,-97.74428
414,Waterhole Saloon,78617,30.18541,-97.5514
415,Grizzelda's,78702,30.252196981289,-97.7082111244723
416,Lola Savannah Coffee Lounge,78746,30.2961801775877,-97.8321158892926
417,The Rooftop Over Lake Travis,78732,30.4061508,-97.8749237
418,Homer's Neighborhood Bar,78728,30.4356409178133,-97.6737805006219
419,The Ranch,78701,30.2702312774387,-97.7500819055225
420,J T Youngblood's,78723,30.2981255804541,-97.7055894748688
421,Bazille,78758,30.4022442392014,-97.7204028617381
422,Intero Restaurant,78702,30.2538078303281,-97.7146533178121
423,Ojos Locos Sports Cantina,78752,30.3370343798347,-97.7022547924471
424,Shakespeare's Pub,78701,30.26752,-97.73971
425,Aviator Pizza & Drafthouse,78745,30.19524,-97.7774
426,Austin City Limits Studio,78705,30.28916,-97.74079
427,Recess Arcade Bar,78701,30.26771,-97.7405
428,Little Woodrow's - Parmer Ln,78729,30.4452477,-97.7441977
429,Sugar Daddy's Bar Round Rock,78664,30.5084036,-97.67855
430,Hyde Park Bar & Grill Central,78751,30.30419,-97.72668
431,Barcelona,78799,30.2675569844717,-97.7409903100922
432,101 By Teahaus,78752,30.33712,-97.71728
433,Kung Fu Saloon,78758,30.400905,-97.722687
434,La Matta,78702,30.26222,-97.72673
435,Micheladas Cafe y Cantina,78701,30.26328,-97.74097
436,Eddie V's Prime Seafood,78701,30.26613,-97.74058
437,Emo's,78741,30.24022,-97.72808
438,Hopdoddy Burger Bar,78757,30.357621,-97.733102
439,The Nook Amphitheater,78701,30.267016,-97.740148
440,ACL Live at The Moody Theater,78701,30.26534,-97.74708
441,Il Brutto,78702,30.26245,-97.72619
442,Bat Bar Austin,78701,30.2677402496338,-97.7405776977539
443,The Barber Shop,78620,30.19259,-98.08876
444,Zaytouna Lounge,78753,30.3876,-97.68399
445,Opa! Coffee & Wine Bar,78704,30.24899,-97.76946
446,The Whiskey Room,78701,30.26646,-97.738113
447,MooseKnuckle Pub,78701,30.26725,-97.73886
448,Los Catrachos,78753,30.3745727539062,-97.6718673706055
449,Cherrywood Coffeehouse,78722,30.29332,-97.71597
450,Topgolf,78758,30.3982988883254,-97.7175606715332
451,Riverbend Centre,78746,30.3412,-97.80317
452,Pluckers,78752,30.323898,-97.707726
453,Hi Tunes Karaoke,78757,30.3474284,-97.7149856
454,The Thirsty Nickel,78701,30.2673881219428,-97.7397779747844
455,Brick House Tavern + Tap,78759,30.4179506798627,-97.7475302281723
456,Chupacabra Cantina Y Tacqueria,78701,30.267735,-97.739205
457,Shotguns On 6th,78701,30.266461,-97.738116
458,Riata Bar and Grill,78727,30.4285390454003,-97.7499593688638
459,ALC Steaks,78703,30.27712,-97.75098
460,Elysium,78701,30.26766,-97.73657
461,Buffalo Billiards,78701,30.2673435211182,-97.7413177490234
462,Bar Lamar @ Whole Foods,78703,30.27065,-97.7535599
463,Big Bang,78701,30.2667904280775,-97.7388728053652
464,Victory Grill,78702,30.2692,-97.7285799
465,Toulouse,78701,30.26733,-97.73899
466,Wink,78703,30.275848,-97.752427
467,Chuy's,78753,30.3751687,-97.6905747
468,Better Days,78701,30.26816,-97.7368
469,Trudy's,78705,30.295775,-97.741048
470,Eddie V's Prime Seafood,78759,30.389393,-97.752657
471,Urban,78758,30.39923,-97.72526
472,Voodoo Room,78701,30.2667009741786,-97.73865333732
473,Captain Benny's Seafood,78751,30.317645,-97.70793
474,Carnaval Brasileiro,78704,30.2605439518501,-97.7528813629517
475,Rainey Hookah Lounge & Bar,78701,30.2597150471976,-97.7376300759893
476,Nik's Italian Kitchen + Bar,78726,30.415176,-97.850097
477,Ranch 616,78701,30.27044,-97.7483
478,Eastside Cafe,78722,30.284,-97.7195
479,Cannon + Belle,78701,30.26506,-97.73862
480,Clicks Billiards,78741,30.2300090789795,-97.7326126098633
481,Vino Volo,78617,30.1997730903084,-97.6649259655231
482,Takoba,78702,30.26413,-97.72737
483,Barley Bean,78701,30.26588,-97.744672
484,Pelons Tex-Mex,78701,30.26872,-97.7366
485,Majestic Austin,78701,30.266626,-97.738701
486,Sledge Hammer On Sixth,78701,30.2693329006433,-97.7475526928902
487,Opal Divines Austin Grill,78704,30.23571,-97.74075
488,827 Rays Kitchen + Cellar,78734,30.396402,-97.931324
489,One World Theatre,78746,30.3088799,-97.845459
490,POP,78701,30.2698036604984,-97.7493897157767
491,SLAB BBQ & Beer,78735,30.2352603039027,-97.8784235799011
492,The Buzz Bee Cave,78738,30.3076183,-97.9377502
493,Geisha Room,78701,30.2670307,-97.7435303
494,The Mansion,78724,30.325682,-97.657669
495,Regulators Sports Bar And Grill,78621,30.34534,-97.37091
496,The Belmont,78701,30.268566,-97.745682
497,The Sidewinder,78701,30.267868,-97.736251
498,TopSpin,78613,30.4803959969661,-97.829713113606
499,Hyde Park Bar & Grill WestGate,78745,30.23168,-97.80012
500,Babylon Hookah Lounge,78705,30.252666781939,-97.7113706457558
501,Chuy's,78759,30.418443,-97.747839
502,Waterloo Ice House Escarpment,78749,30.20267,-97.87877
503,Champions Sports Bar,78701,30.2657253845762,-97.7407827973366
504,Third Base ,78748,30.1604188880156,-97.791522237854
505,Skyline Theater At the Long Center,78704,30.259982,-97.7510757446289
506,Sam's Town Point,78748,30.17206,-97.82759
507,Sakura Sushi & Bar,78734,30.3471900655943,-97.9670257591366
508,The Shady Llama,78676,30.0610644,-98.0923864
509,TenOak,78701,30.266996,-97.7442669
510,District 301 Bar,78701,30.266944,-97.742778
511,Trudy's,78757,30.3706003956709,-97.7276092788008
512,Paradise On Ice,78660,30.45631,-97.66074
513,Broken Spoke,78704,30.2408627314329,-97.7851876778672
514,Peckerheads on Sixth,78701,30.267614,-97.738949
515,Grumpy's Saloon,78734,30.37538,-97.94629
516,Lit Lounge,78701,30.267239,-97.740929
517,The Park At The Domain,78758,30.402915,-97.723647
518,SLAB BBQ & Beer,78758,30.3713101540255,-97.7246514312134
519,Cantina El Milamores,78702,30.2641240104069,-97.7273150905967
520,Ray Benson's Roadhouse Bar,78719,30.2019607476429,-97.6669872857055
521,Foreign & Domestic,78751,30.3171071,-97.7196383
522,BB Rover's Cafe & Pub,78759,30.43077,-97.76458
523,The Railhouse,78640,29.987664,-97.874634
524,The Bar at iPic Theaters,78758,30.39629,-97.72788
525,The Grove Wine Bar & Kitchen,78738,30.333846489226,-97.9679115258648
526,Westgate Lanes,78745,30.2067832946777,-97.8164367675781
527,Fulton,78701,30.26198,-97.73862
528,Old School Austin,78701,30.2679,-97.7392
529,Fixe Austin's Southern House,78701,30.26853,-97.74773
530,The Grove at  Southpark Meadows,78748,30.160994,-97.792242
531,Dave & Buster's,78759,30.3835101407535,-97.7369284629822
532,The Aquarium On Sixth,78701,30.26678,-97.73917
533,Fresh Heim,78750,30.461817,-97.795588
534,The Canary Roost,78758,30.4006140494032,-97.7038837734032
535,Sam's Boat,78759,30.3977208031436,-97.7332278402672
536,RIO Night Club + Day Club,78701,30.27016,-97.74921
537,CRÚ Food & Wine Bar,78701,30.26502,-97.74594
538,Stubb's Waller Creek Amphitheatre,78701,30.26857,-97.73617
539,Maudie's Triangle,78751,30.31422,-97.73267
540,Hops and Thyme,78734,30.3428,-97.97033
541,The Ginger Man,78738,30.30849,-97.93874
542,The 512 on 6th,78701,30.26728,-97.73878
543,Lone Star Bar - National Bar Of Texas,78645,30.4920406341553,-97.9233245849609
544,It's Italian Cucina,78704,30.25243,-97.76454
545,Wanderlust Yoga,78701,30.26597,-97.741608
546,BarChi Sushi,78701,30.265278,-97.7454714
547,Meridian 98,78738,30.309514,-97.935608
548,Trudy's Four Star,78737,30.2042277780864,-97.9844427108765
549,El Jacalito Restaurant,78741,30.2307,-97.73214
550,Club Carnaval,78741,30.2376556396484,-97.7265396118164
551,Woody's Tavern & Grill,78738,30.3045361335771,-97.9421976143954
552,Pluckers - Oak Hill,78735,30.2355751025442,-97.8779203609674
553,the bank inn,G73 1BZ,55.8287811,-4.2155328
554,Café Crème,78741,30.23187,-97.73568
555,Quantum Lounge,78701,30.2678798139095,-97.7459292858839
556,Austin Karaoke,78752,30.33611,-97.72068
557,The Brass Tap,78664,30.509283,-97.677563
558,Iron Cactus,78701,30.26734,-97.73941
559,Co-Op Bar,78701,30.26735,-97.73908
560,Tony's Jamaican Food,78702,30.2687816619873,-97.7279052734375
561,Yahala Hookah Lounge,78752,30.33109,-97.71513
562,Toulouse Cafe and Bar,78758,30.40283,-97.72161
563,3TEN Austin City Limits Live,78701,30.26534,-97.74708
564,Back 9 Bar,78602,30.1126355,-97.3801859
565,Osteria Pronto,78702,30.2641842525532,-97.7439706480237
566,Irie Bean Coffee & Wine Bar,78704,30.2475223170458,-97.7748323325062
567,Waterloo Ice House Burnet Road,78757,30.3679235,-97.7281608
568,Opal Divine's Marina,78727,30.42379,-97.70206
569,Trudy's,78745,30.1971862716635,-97.7669821634765
570,Pluckers Wing Bar,78704,30.2367349329516,-97.7908436537663
571,Stanley's Farmhouse Pizza,78736,30.2303390903201,-97.9996330140167
572,Slick Willie's Family Pool Hall,78757,30.3667499775629,-97.7289963809873
573,The Dig Pub,78613,30.4979947124399,-97.8206811453748
574,Bombay Bistro,78704,30.2361178,-97.7952578
575,The Lodge Austin,78701,30.26685,-97.73884
576,Applebee's Grill + Bar,78735,30.23511,-97.821023
577,The Rooftop on 6th,78701,30.26678,-97.73917
578,Patsy's Cafe,78741,30.21353,-97.72814
579,Satellite Eat Drink Orbit,78749,30.201602,-97.88007
580,Thunderbird Cafe & Tap Room,78756,30.33082,-97.73193
581,Summit,78701,30.267579,-97.743872
582,Bone Daddy's BBQ,78759,30.4157183214564,-97.7452174418976
583,Bayou Lounge,78701,30.26704,-97.7379799
584,Encore,78701,30.267106667161,-97.7369217574596
585,Taylor Station Bar,76574,30.56848,-97.40897
586,Saxon Pub,78617,30.2022582593851,-97.6655642692615
587,Legend's Grille & Lounge,78747,30.13646,-97.79009
588,Z-Tejas Southwestern Grill,78759,30.38934,-97.75211
589,Poodie's Hilltop Bar & Grill,78669,30.369814,-98.074933
590,Waterloo Ice House Southpark Meadows,78748,30.1614614,-97.7925209
591,Umi Sushi Bar & Grill,78745,30.2003739189446,-97.7635352122227
592,Soho Lounge,78701,30.26724,-97.74085
593,M.I.2 Crew,78753,30.3889868,-97.6710889
594,El Flamingo Club,78747,30.12914,-97.6951
595,Rack Daddy's,78728,30.43549,-97.6744
596,Armadillo Christmas Bazaar,78704,30.26024,-97.75382
597,Cafe Josie,78703,30.2731212879431,-97.7571356024467
598,Oilcan Harry's,78701,30.2665770249591,-97.7453652903183
599,Big Daddy's Burgers & Bar,78758,30.3733654152704,-97.7283467239752
600,Agave,78701,30.2666606903076,-97.7388153076172
601,Pluckers Wing Bar,78758,30.3729185008493,-97.727730652531
602,Jenna's Asian Kitchen,78750,30.4629648622548,-97.8148166093191
603,Sky Beer Garden,78737,30.2717600000004,-97.709970000002
604,Vice Bar,78701,30.2675762176514,-97.7400741577148
605,Empire Control Room & Garage,78701,30.26741,-97.7360999
606,Longhorn Daiquiris,78640,30.00169,-97.82699
607,Skinny Bob's Billiards & Sports Bar,78681,30.4879769,-97.6801049
608,Rain on 4th,78701,30.266515,-97.745681
609,Twin Peaks,78745,30.1988648487841,-97.7662043419587
610,Annie's Cafe and Bar,78719,30.2022583404733,-97.670186237326
611,Doc's Backyard,78745,30.2314,-97.81858
612,Chili's,78756,30.31332,-97.73835
613,Black Sparrow Music Parlor,76574,30.56843,-97.4101699
614,Cyclone Anaya's Tex-Mex Cantina,78758,30.40283,-97.72161
615,Carson Creek Ranch,78742,30.2286097,-97.6639062
616,Serranos,78735,30.235761,-97.822163
617,Mandola's Italian,78751,30.3159319310134,-97.7336796197883
618,Community Pizza & Beer Garden,78676,29.99703,-98.09493
619,Chuy's,78749,30.217729,-97.841512
620,Austin Hookah Lounge,78745,30.22483,-97.8032
621,Bon Temps Creuset,78732,30.40615,-97.87492
622,Gusto Italian Kitchen & Wine Bar,78756,30.3183136593457,-97.7399416283112
623,Lisa Lu's Bar & Grill,76530,30.6552470583992,-97.4434124649997
624,Moonlight Hookah Cafe,78759,30.43077,-97.76458
625,Cedar Park Pub,78613,30.481799,-97.805339
626,Earl Campbell's Sports Bar,78719,30.2022828037756,-97.6696040577532
627,Maki Toki,78758,30.3931,-97.706923
628,Nutty Brown Cafe,78737,30.2085856458804,-97.9725122451782
629,Urban Coyote,78748,30.1707038879395,-97.8261260986328
630,Liberty Tree Tavern,78621,30.3493,-97.37076
631,Bass Concert Hall,78712,30.2857755454267,-97.7313145589997
632,Fara Café Coffee Shop,78719,30.2098280664528,-97.6629638671875
633,Red Rooster's,78660,30.4394798278809,-97.6205978393555
634,Ethel's Wine Market,78734,30.33811,-97.97113
635,Chinatown Downtown,78701,30.26723,-97.74421
636,Crystal Creek Distillery,78669,30.40578,-98.0639
637,Volume Night Club,78701,30.2666,-97.73647
638,The Junction Drinkery & Eatery,78666,29.9422989100935,-98.0936867371202
639,Hippies & Hops,78719,30.20215,-97.66713
640,Craft & Racked Wine Bar,78664,30.53901,-97.67056
641,Departure Lounge,78719,30.2019844449803,-97.6665412061124
642,The Capital Grille,78701,30.26633,-97.74464
643,Latitude 30,78701,30.26716,-97.74064
644,Applebee's Grill + Bar,78752,30.337642,-97.70204
645,ScratcHouse,78701,30.26695,-97.73612
646,Taqueria Las Chivas Jalisco,78753,30.377566,-97.708694
647,Speakeasy,78701,30.2668437957764,-97.7437286376953
648,Roadhouse Bar & Grill,78681,30.517662,-97.692687
649,The Rooftop at Urban,78664,30.506629,-97.6824495
650,Bob's Blue Collar Tavern,78621,30.3530751,-97.4126746
651,Hanovers Draught Haus,78660,30.440843,-97.6195965
652,Fleming's Prime Steakhouse & Wine Bar,78701,30.26374,-97.74129
653,Darband Hookah Lounge,78729,30.452406,-97.781062
654,Desert Door,78619,30.15313,-98.03982
655,R Brushy Creek Bar,76574,30.48594,-97.4995
656,Chili's Bar & Grill,78758,30.3728202570139,-97.7283100280515
657,The Owl Wine Bar & Home Goods,78621,30.3488197,-97.3712311
658,Sidecar Tasting Room,78620,30.1973705,-98.0887909
659,11 Degrees Daiquiri,78660,30.450104,-97.656566
660,The Switch,78737,30.19815,-97.98446
661,Hooters,78704,30.2592985544229,-97.7492350103395
662,Arab Cowboy Cafe & Hookah Lounge,78705,30.2879009246826,-97.7470092773438
663,Krave Night Club,78701,30.2675762176514,-97.7400741577148
664,Hudson's On Mercer St.,78620,30.1927149295807,-98.0905395001173
665,Leander Beer Market,78641,30.57917,-97.85402
666,Fast Eddie's Austin - Northfork,78717,30.4711538128108,-97.7957709093736
667,Proof and Cooper,78620,30.2867371631779,-98.0645153671503
668,Lone Star Hookahs and Events,78705,30.29519,-97.73654
669,Uncle Flirty's,78701,30.2668647766113,-97.7396087646484
670,Rumi's Tavern,78645,30.4943592551499,-97.9250185031227
671,McArthur's,78734,30.3474052078618,-97.9662311779098
672,Brew Exchange,78701,30.27038,-97.74987
673,Hays City Store,78619,30.0495332,-97.9890146
674,Cielo Night Club,78701,30.266171,-97.738235
675,LT Corner Pub,78734,30.34999,-97.96471
676,Freda's Seafood Grille,78750,30.46423,-97.80358
677,Desperados,78753,30.363748,-97.695249
678,Red Horn Coffee House and Brewing Company,78613,30.5341242270347,-97.7804979
679,Chilis,78757,30.3725372015239,-97.727
680,Doghouse Drinkery Dog Park,78641,30.551958,-97.765327
681,Hookah Social,78701,30.27009,-97.74926
682,The Lighthouse Restaurant & Lounge,78669,30.41703,-98.04516
683,Happy Trails,78749,30.22135,-97.83949
684,Chili's,78752,30.3278539667098,-97.7049051689876
685,Austin Pizza Garden,78735,30.2357725,-97.8590558
686,Layali Austin Hookah Lounge,78750,30.46116,-97.81701
687,Maggiano's Little Italy,78758,30.39556,-97.72694
688,Uncle Gary's Bar,78660,30.479971,-97.584698
689,The Rock Sports Bar,78664,30.5090318,-97.6781902
690,CRÚ Food & Wine Bar - The Domain,78758,30.402037,-97.726375
691,Mouton's Bistro & Bar,78613,30.480146,-97.831513
692,Buffalo Wild Wings,78752,30.33784,-97.70175
693,Nate's,78610,30.0776241618228,-97.8453299403191
694,Tavern On Main - Buda,78610,30.0810139527689,-97.8434365918148
695,Austin Music Hall,78701,30.2667255401611,-97.7501068115234
696,Kasbah Hookah Lounge & Bar,78705,30.292686,-97.741708
697,Wave,78798,30.266944,-97.742778
698,Marshall's Tavern,76574,30.57761,-97.41078
699,Marshall's Tavern,78660,30.4394356,-97.622639
700,Centerfield Sports Bar & Grill,78640,29.9887268990278,-97.8764677047729
701,Cover 3,78681,30.538806,-97.693159
702,Santorini Cafe,78753,30.3876,-97.68399
703,Buck's Backyard,78610,30.072278,-97.873272
704,Cedro,78717,30.4760843513884,-97.8038034034881
705,Applebee's Grill + Bar,78744,30.192863,-97.767511
706,MAX's Wine Dive,78701,30.264254,-97.74129
707,Da-Fan Club,78641,30.564158,-97.8007134
708,Willie's Joint,78610,30.0865898,-97.8364792
709,Sushi Zushi - Domain II,78758,30.394752,-97.727723
710,The Downtown Hall of Fame,78634,30.544224,-97.547462
711,Mi Casa Cantina,78701,30.2664604187012,-97.7381134033203
712,Alamo Drafthouse Cinema - Lakeline,78717,30.4756658921704,-97.8041582206758
713,The Long Branch Saloon,78664,30.50825,-97.67918
714,Finley's Round Rock,78664,30.50762,-97.68282
715,We Olive & Wine Bar,78738,30.3091309081911,-97.9404269098213
716,La Chelada,78641,30.55363,-97.8428
717,Tarbouch Lebanese Grill & Hookah,78704,30.2371318596233,-97.7496900781989
718,D K Sushi Restaurant,78745,30.200511932373,-97.7860488891602
719,Flores Mexican Restaurant,78749,30.2230527605093,-97.8428162365291
720,Mai Thai Restaurant,78701,30.26427,-97.74127
721,The Uptown Social,78626,30.638947,-97.6777156
722,Chili's,78758,30.3728202570139,-97.7283100280515
723,Growler Express,78610,30.0878336089493,-97.8251979500055
724,The Preserve Kitchen and Bar,78641,30.4442815767693,-97.8689975780563
725,The Cigar Room,78734,30.349803,-97.965043
726,Red Rock Bar & Grill,78681,30.5382814,-97.6956852
727,Piranha Killer Sushi,78701,30.2641316338822,-97.7414880546311
728,Epicure,78620,30.1924389,-98.0834926
729,Coco's Lounge,78664,30.50823,-97.678497
730,Chili's,78745,30.1986285957953,-97.76506943436
731,Jack's Lounge,40324,30.6492809630773,-97.6870546585794
732,Shade Tree Wine Bistro,78626,30.64424,-97.6768699
733,Lakeway Market Tap House,78734,30.3582273841049,-97.9785187169909
734,Chili's,78753,30.417283,-97.671773
735,Stinson Distilling,78619,30.1436267733821,-98.0322540923953
736,County Line Icehouse,78617,30.17693,-97.53144
737,Chili's Grill and Bar,78612,30.0599599108413,-97.5039252068848
738,Milano Cafe,78735,30.2396599913685,-97.8319001197815
739,Fuego Latino Gastropub,78664,30.509783,-97.679604
740,Tammy Miranda Music Production,,,
741,URBAN Eat.Drink,78664,30.50678,-97.68198
742,Spirit of Texas Distillery,78660,30.48011,-97.58413
743,The Gibson Lounge at Maggie Mae's,78701,30.2670273,-97.7397009
744,Side Pocket Billiards,78753,30.37593,-97.6894499
745,Smokey's Mobile Cigar Lounge,78620,30.195384979248,-98.1037445068359
746,Snuffy's Bar & Grill,78634,30.5431408681732,-97.547734156251
747,Last Call,78660,30.45569,-97.6591
748,Buffalo Wild Wings,78753,30.4112189218405,-97.6751050313589
749,Time Out Sports Bar,78642,30.650058451307,-97.8615891903871
750,Round Rock Tavern,78664,30.50811,-97.67951
751,Cactus Rose,76574,30.629417,-97.431543
752,The Post,78613,30.5195268,-97.8360744
753,SHS BAR,78613,30.526062,-97.820835
754,Sunset Bar & Grill,78613,30.4785445332527,-97.829068377614
755,Fleming's Prime Steakhouse & Wine Bar,78758,30.4032128248743,-97.72563715159
756,Nixtamal Tacos and Drinks,78664,30.50914,-97.67802
757,Papa Jack's,78640,29.98879,-97.87609
758,Zodi'X Cigar Lounge,78626,30.6473792709958,-97.6798209621505
759,Mavericks Dance Hall,78660,30.456549,-97.6612132933235
760,Emerald Restaurant,78738,30.30835,-97.9529699
761,The Alcove Cantina,78664,30.5085923513308,-97.6779108121991
762,Saxon Pub,78719,30.2022114,-97.6678722
763,Phara's Mediterranean Cuisine,78751,30.31746,-97.72196
764,High Country Market & GastroPub,78664,30.4968062,-97.6163901
765,Buffalo Wild Wings,78745,30.196908,-97.767661
766,Big Shotz,78728,30.47906,-97.67809
767,Club Caribe atx,78744,30.19674,-97.7059
768,Red Rock Steakhouse and Saloon,78662,29.9584397,-97.4473446
769,Third Base,78664,30.47781,-97.670187
770,Pintos Party,78664,30.52913,-97.683
771,West Pecan Coffee + Beer,78660,30.44026,-97.62102
772,Casa Arandinas,78660,30.45631,-97.66074
773,Rockey's Piano Bar,78664,30.5081634521484,-97.6793365478516
774,Cafe Blue,78738,30.30918,-97.94027
775,Wildfire,78626,30.63605,-97.67819
776,Texas French Bread,78705,30.29617,-97.74407
777,La Cucaracha Cantina,78613,30.505198,-97.8202888
778,Charm Korean BBQ,78753,30.42419,-97.66973
779,Homespun Kitchen And Bar,78620,30.192391,-98.086595
780,I Vini,78719,30.2029909775539,-97.6717199826395
781,Pflutto's Tavern,78691,30.483728,-97.5838613
782,American Airlines Admirals Club,78719,30.202169,-97.667075
783,Brick Oven Restaurant,78759,30.398783,-97.749098
784,The Grille at Highland Lakes,78645,30.4264131919886,-98.0029657495847
785,Room 111,78640,29.9884600861625,-97.876021116972
786,600 Degrees Pizzeria & Draft House,78626,30.636477,-97.676161
787,Leon's Country Store,78602,29.99494,-97.43119
788,Austin360 Amphitheater,78617,30.1349064016285,-97.6384387732635
789,George's On The Town,78628,30.6433547414223,-97.6881733297926
790,Maggiore's,78613,30.481842,-97.830247
791,Rawshe Hookah Lounge & Cafe,78753,30.38238,-97.68568
792,Shooters Billiards & Sports Bar,78613,30.52344,-97.82414
793,Jalisco's Restaurant and Bar,78610,30.0843905054366,-97.824346902755
794,Morelia Mexican Grill,78717,30.486592,-97.769706
795,Tequila Bar & Grill,78665,30.5679072,-97.662446
796,Old Coupland Inn & Dancehall,78615,30.45927,-97.39039
797,United Club,78719,30.2021489,-97.666829
798,Lucky Lounge,78660,30.4434656,-97.6524815
799,Spotlight Karaoke,78613,30.52344,-97.82414
800,Wild West,78613,30.52297,-97.82662
801,Big Horse Ice House,78654,30.5581929581032,-98.1137796940613
802,Wine Sensation,78664,30.511623,-97.679649
803,CJ's Sports Bar & Grill,78626,30.6521255661877,-97.6757128974408
804,Bahadi's Chicken & Lounge,78660,30.443323206263,-97.609011819574
805,Chili's,78748,30.157586,-97.791328
806,Warpath Pints and Pizza,78664,30.51865,-97.66833
807,Office Lounge,78628,30.619141,-97.693945
808,The Grove Wine Bar & Kitchen,78613,30.525438579868,-97.8149707743165
809,Slap Box Pizzicheria,78664,30.5088850474601,-97.6773135916614
810,Maudie's Hill Country,78738,30.304761430141,-97.9373935981999
811,Tracies,77975,30.640696037455,-97.8774294313096
812,Regulators Sports Bar & Grill,78621,30.34534,-97.37091
813,Hippo Hut,78634,30.5406,-97.54213
814,Hill Country Tasting Room,78619,30.1469032306841,-98.0352503505119
815,Burros Tex Mex Bar and Grill,78664,30.51898,-97.6714
816,The Backyard at Bee Cave,78738,30.316137390965,-97.951433340037
817,The Edge of Town Saloon & Grill,78660,30.449408,-97.661194
818,Wicked Wings,78640,30.01587,-97.86232
819,Hopdoddy Burger Bar,78681,30.5385821169835,-97.6932054554886
820,Cody Ray's Saloon,78660,30.4555779268904,-97.6591122150421
821,Chuy's,78613,30.532248,-97.818306
822,Twin Peaks,78664,30.4815978572294,-97.6729970558637
823,Pluckers,78613,30.4685058509251,-97.8036304106708
824,Main Street Pizzeria,78610,30.0885158212479,-97.8165092579617
825,Southern's Pizza & Sports Pub,78641,30.553158012282,-97.8420249480102
826,J5 Steakhouse,78669,30.36377,-98.06937
827,FD's Grillhouse,78660,30.443837,-97.666844
828,Roots Bistro,78626,30.6363220214844,-97.6777725219727
829,Chili's,78738,30.3072418361908,-97.9393461849029
830,El New Goal Post,78664,30.52734,-97.68717
831,El Monumento,78626,30.6427405805118,-97.6794043202845
832,Pardners,78664,30.5185289226152,-97.6691222190857
833,San Angel Mexican Bar and Grill,78676,29.9939304,-98.1001566
834,La Esquina Cantina,78664,30.50947,-97.67654
835,Tracies Saloon,78642,30.654425282984,-97.87504
836,Rio Grande Tex Mex Restaraunt,78660,30.45012,-97.65463
837,Blue Rock Studios,78676,29.99696,-98.10062
838,Buenos Aires Café - Galleria,78738,30.309195,-97.9389124
839,Mellow Mushroom,78681,30.53721,-97.69369
840,Pluckers Wing Bar,78662,30.499078,-97.679468
841,Railyard Saloon,78664,30.5094757080078,-97.6765441894531
842,Old Buck's Place,78612,30.16454,-97.44647
843,Mel's Lone Star Lanes,78626,30.6522045135498,-97.6762924194336
844,Applebee's Grill + Bar,78613,30.472165,-97.799632
845,Chuy's,78761,30.5344679988335,-97.6932191848755
846,Gino's Italian Restaurant -Cedar Park,78613,30.48066,-97.83358
847,Fast Eddies Pool Hall,78728,30.47494,-97.6735099
848,Maria's,78641,30.57904,-97.85343
849,Los Chilaquiles Bar and Mexican Grill,78613,30.50791,-97.82202
850,Verona Ristorante Italiano,78734,30.3552260998197,-97.9613586142659
851,BB's Home Cooking,78628,30.6493277,-97.6878294
852,Casa Garcia's,78640,30.01587,-97.86232
853,Pizza Delight,78664,30.518942,-97.660553
854,Applebee's Grill + Bar,78626,30.643092,-97.6846
855,Applebee's Grill + Bar,78681,30.482577,-97.681498
856,Applebee's Grill + Bar,78640,30.010682,-97.863027
857,Applebee's Grill + Bar,76574,30.6003694080985,-97.41767
858,Austin's Park N Pizza,78660,30.46329,-97.666307
859,Beluga Japanese Restaurant,78664,30.4820113859778,-97.6572763814628
