,Name,Zip code,latitude,longitude
0,Salty Sow,78722,30.2836497259461,-97.7213180065155
1,CAVA,78746,30.2728,-97.80017
2,Moonshine Patio Bar & Grill,78701,30.26386,-97.73796
3,Roaring Fork,78701,30.2691040039062,-97.7419586181641
4,Franklin Barbecue,78702,30.27009,-97.73126
5,True Food Kitchen,78701,30.2672474,-97.7520856
6,Easy Tiger,78701,30.2658004760742,-97.7356872558594
7,Second Bar + Kitchen,78701,30.2645939290629,-97.7444895054345
8,The Peached Tortilla,78756,30.33075,-97.74021
9,Hideaway Kitchen & Bar,78744,30.21165,-97.75281
10,Gus's World Famous Fried Chicken,78701,30.2634862,-97.7417305
11,Culinary Dropout,78758,30.403653,-97.721503
12,Kicked Up Grub,78704,30.2407,-97.78598
13,Roaring Fork,78759,30.40064,-97.73747
14,South Congress Cafe,78704,30.247910624258,-97.7506415082953
15,Odd Duck,78704,30.25452,-97.762064
16,The Hightower,78702,30.264821,-97.729488
17,Bird Bird Biscuit,78722,30.28492,-97.71398
18,Olive & June,78703,30.30726,-97.75113
19,Contigo,78723,30.28804,-97.70335
20,Boteco,78702,30.26431,-97.72789
21,Corner,78701,30.264545,-97.74329
22,"Truluck's Seafood, Steak and Crab House",78701,30.26683,-97.74502
23,Launderette,78702,30.25193,-97.72273
24,Koriente,78701,30.267,-97.73597
25,Austin Taco Project,78701,30.26506,-97.73862
26,Ramen Tatsu-Ya,78702,30.26326,-97.72624
27,Stella San Jac,78701,30.2665762751589,-97.740525726058
28,Austin Rotisserie,78704,30.2274,-97.76272
29,Clay Pit,78701,30.279073,-97.74232
30,Honest Mary's,78759,30.39447,-97.74826
31,Hopdoddy Burger Bar,78704,30.2496963637703,-97.7500538680416
32,El Alma,78704,30.2601,-97.75562
33,Eddie V's Prime Seafood,78701,30.26613,-97.74058
34,Uchi,78704,30.25754,-97.75981
35,Lamberts Downtown Barbecue,78701,30.2652,-97.74785
36,Fabi + Rosi,78703,30.2789000355663,-97.7726416986868
37,Ramen Tatsu-Ya,78704,30.253899793553,-97.7631825953722
38,Lin Asian Bar And Dim Sum,78703,30.27281,-97.75799
39,The Brewtorium Brewery & Kitchen,78752,30.3258884311273,-97.7175339123001
40,Fixe Austin's Southern House,78701,30.26853,-97.74773
41,Sophia's,78701,30.26955,-97.74751
42,Jack Allen's Kitchen 360,78746,30.3352434572574,-97.8075081023773
43,The Backspace,78701,30.26685,-97.74043
44,Uchiko,78756,30.31067,-97.74
45,Dragonbeard Kitchen,78754,30.3310371446081,-97.6669375598431
46,L'Oca d'Oro,78723,30.297251,-97.704674
47,The Big Kahuna,78756,30.321166,-97.739538
48,Freedmen's,78705,30.288439,-97.747897
49,68 Degrees Kitchen,78703,30.27786,-97.7729
50,Saffron,78731,30.35501,-97.7555
51,Ramen Tatsu-Ya,78758,30.361239468932,-97.715247647945
52,Eberly,78704,30.2587887974766,-97.7587449596709
53,Colleen's Kitchen,78723,30.2984,-97.704748
54,Troy,78759,30.371765,-97.756428
55,Péché,78701,30.266988,-97.745231
56,CAVA,78705,30.2885622487397,-97.741684423978
57,The Bonneville,78701,30.263942,-97.746137
58,888 Pan Asian Restaurant,78741,30.2296193570823,-97.7299686863661
59,Botticelli's,78704,30.2503552,-97.7491967
60,Haru Ramen,78757,30.3547112891156,-97.7329172375578
61,Cookbook Bar & Cafe,78701,30.26613,-97.75178
62,Juniper,78702,30.25486,-97.71762
63,Picnik,78756,30.3189735054924,-97.7391379775419
64,CAVA,78701,30.26721,-97.74296
65,The Grub House,78701,30.2674408,-97.7368622
66,Emmer & Rye,78701,30.2567958831787,-97.7391738891602
67,Justine's Brasserie,78702,30.253236,-97.700576
68,Sway,78704,30.250142,-97.754556
69,Bouldin Creek Cafe,78704,30.24646,-97.75677
70,Lotus + Cleaver,78758,30.40101,-97.72247
71,Cooper's Old Time Pit Bar-B-Que,78701,30.2649296236062,-97.7437352389097
72,Barley Swine,78757,30.3412737661652,-97.7383886364151
73,Blue Dahlia Bistro,78702,30.26889,-97.728588
74,Little Big Burger,78702,30.26263,-97.7248
75,Phoenician Resto Cafe,78701,30.2597553,-97.737549
76,Blue Dahlia Bistro,78746,30.278640289503,-97.80777385929
77,Parkside,78701,30.2670631408691,-97.7403259277344
78,The Brewer's Table,78702,30.25331,-97.70198
79,Heo Eatery,78752,30.3308502022095,-97.7235301584005
80,T22 Chicken Joint,78757,30.34801,-97.73535
81,Patrizi's,78722,30.2839715080976,-97.7172101465576
82,Wink,78703,30.275848,-97.752427
83,Chi'Lantro,78756,30.3245593141276,-97.740055874205
84,DEE DEE,78702,30.25901,-97.71445
85,Pho Please,78741,30.24272,-97.72791
86,Suerte,78702,30.26228,-97.72331
87,The Halal Corner,78723,30.306225107038,-97.7076307296322
88,Banger's Sausage House & Beer Garden,78701,30.2590157575754,-97.7385085889549
89,Lebowski's Grill,78757,30.37186,-97.72586
90,Bun Belly,78751,30.31124,-97.71505
91,Eureka!,78701,30.2678427491661,-97.7412401139736
92,Irene's,78701,30.269838,-97.751213
93,Chicken Lollypop,78702,30.27412,-97.72018
94,Kemuri Tatsu-ya,78702,30.2537937164307,-97.7129516601562
95,Lucky Robot,78704,30.250828,-97.748986
96,Don Japanese Kitchen,78705,30.29284,-97.7417399
97,Titaya's Thai Cuisine,78751,30.3236051867619,-97.7273681944428
98,Sala and Betty,78751,30.31318,-97.71476
99,The Carillon,78705,30.2818694031,-97.7400357374344
100,Swift's Attic,78701,30.26563,-97.74337
101,Jeffrey's,78703,30.2803621441126,-97.7590721100569
102,Barlata Tapas Bar,78704,30.2522283079698,-97.7644667171967
103,Chi'Lantro,78701,30.2706345638105,-97.7415420642792
104,Turf N Surf Po' Boy,78701,30.2671310218702,-97.7457510140812
105,SLAB BBQ & Beer,78758,30.3713101540255,-97.7246514312134
106,Cabo Bob's Burritos,78704,30.2209809152295,-97.756928435967
107,Hula Hut,78703,30.2947120806306,-97.7843958519819
108,Nightcap,78703,30.27371,-97.76045
109,Royal Jelly,78752,30.3391,-97.71703
110,The Grove Wine Bar & Kitchen,78746,30.2963184857946,-97.8328549861908
111,Phoebe's Diner,78704,30.2416132,-97.7588755
112,The Capital Grille,78701,30.26633,-97.74464
113,Wild Chix & Waffles,78757,30.3544629161613,-97.7323084687866
114,Home Slice Pizza,78704,30.2492,-97.74943
115,North Italia,78758,30.4022781469848,-97.7259850502014
116,Jade Restaurant,78746,30.3352979,-97.804464
117,Red Ash,78701,30.26588,-97.744672
118,Lonesome Dove Western Bistro,78701,30.2673,-97.74428
119,Eastside Cafe,78722,30.284,-97.7195
120,Abo Youssef,78722,30.283955,-97.719837
121,Perla's,78704,30.2499652289007,-97.7499698671015
122,Loro,78704,30.24775,-97.77127
123,Jewboy Burgers,78756,30.3212704266421,-97.739480091546
124,Kerbey Lane Cafe,78731,30.30803,-97.75047
125,Michi Ramen,78752,30.33331,-97.72131
126,Perry's Steakhouse & Grille - Downtown Austin,78701,30.26916,-97.7426
127,Stiles Switch BBQ & Brew,78757,30.33452,-97.72169
128,24 Diner,78703,30.2719219266941,-97.754193841977
129,Nesperado Mexican Barbecue,78704,30.24686,-97.75639
130,Cafe Josie,78703,30.2731212879431,-97.7571356024467
131,Chi'Lantro,78704,30.252212,-97.763751
132,Chago's Caribbean Cuisine,78752,30.3402583550962,-97.7169592670936
133,North Italia,78701,30.2657513,-97.7488741
134,Jewhungry?,78704,30.22565,-97.76274
135,Clark's Oyster Bar,78703,30.273129,-97.757323
136,Fogo de Chão Brazilian Steakhouse,78701,30.264116,-97.740806
137,Paperboy,78702,30.2684556389874,-97.7275395380287
138,Trace,78701,30.2651558,-97.7466468
139,la Barbecue,78702,30.2561254,-97.7223386
140,Jack Allen's Kitchen,78757,30.3612,-97.73943
141,Taco Joint,78704,30.25637,-97.74552
142,The Grove Wine Bar & Kitchen,78701,30.27102,-97.750691
143,She's Not Here,78701,30.2656463300085,-97.7483603730798
144,Gabriela's Downtown,78702,30.2666,-97.73302
145,Pastelaria São Paulo,78704,30.24441,-97.75808
146,Arturo's Underground Cafe,78701,30.2797094,-97.74192
147,Juan In A Million,78702,30.2552660599625,-97.7190592909029
148,Old Thousand,78702,30.26962,-97.72992
149,Sa-Tén - Canopy,78702,30.2619597964214,-97.6990253046073
150,8 Track,78722,30.28511,-97.71164
151,Be More Pacific,78757,30.36068,-97.74139
152,Javi's Best of Tex-Mex,78744,30.217777,-97.689705
153,III Forks,78701,30.26435,-97.74676
154,Fresko Eats,78752,30.336406890935,-97.7167392256561
155,Gino's Vino Osteria,78723,30.307265,-97.706995
156,Hank's,78723,30.31203,-97.69365
157,Hi Wings,78757,30.3552293403268,-97.7326987285584
158,Brama Restaurant,78757,30.36622,-97.73872
159,Baretto,78759,30.398676,-97.749059
160,Van's Banh Mi,78751,30.31739,-97.72109
161,Steiner Ranch Steakhouse,78732,30.38991,-97.87181
162,Copper Restaurant & Dessert Lounge,78758,30.4004963655268,-97.7271404662891
163,Gourdough's Public House,78704,30.245382,-97.780437
164,Sa-Ten,78751,30.31073,-97.71515
165,Elizabeth Street Cafe,78704,30.2497925192929,-97.7546439319185
166,Three Little Pigs,78757,30.340254,-97.738615
167,Zaika Indian Contemporary Cuisine,78758,30.37257,-97.72378
168,East Side King,78704,30.24752,-97.77489
169,Daruma Ramen,78701,30.2664104548667,-97.73639483874
170,Kitchen Window,78751,30.30608,-97.71523
171,Russian House,78701,30.26603,-97.74023
172,Chi'Lantro,78702,30.26426,-97.73078
173,Cuba 512,78745,30.2092761993408,-97.8150634765625
174,Paul Martin's Austin Grill,78758,30.402853,-97.721297
175,L'estelle House,78701,30.2599341625746,-97.7384599763706
176,Hillside Farmacy,78702,30.2680931091309,-97.7269134521484
177,Forthright,78701,30.2623732844951,-97.743445
178,Cafe Blue - Downtown,78701,30.26365,-97.74084
179,Dai Due,78722,30.2848871297558,-97.7167839693365
180,Osteria Pronto,78702,30.2641842525532,-97.7439706480237
181,TLC Austin,78704,30.25576,-97.76252
182,Chez Nous,78701,30.26648,-97.7385
183,Mandala Kitchen & Bar,78704,30.2558810087551,-97.7628875523806
184,Frank,78701,30.2668892772151,-97.7444967258494
185,Snooze An AM Eatery,78756,30.30585,-97.74292
186,Arlo Grey,78701,30.26278,-97.74396
187,Snooze An AM Eatery,78704,30.250894,-97.765847
188,Pitchfork Pretty,78702,30.25343,-97.71351
189,Mia Italian Tapas & Bar,78758,30.4010480276062,-97.7229421220703
190,Tacodeli,78756,30.3104773946775,-97.7400862024725
191,The Jackalope,78701,30.26732,-97.73892
192,Winebelly,78704,30.24141,-97.75892
193,Citizen Eatery,78756,30.3216936764352,-97.7389393582665
194,The OASIS on Lake Travis,78732,30.4058986,-97.8739516
195,Lazarus Brewing,78702,30.26169,-97.72204
196,Intero Restaurant,78702,30.2538078303281,-97.7146533178121
197,Honduras Food,78741,30.2204679680813,-97.694631703198
198,K-Bop,78705,30.2829,-97.74238
199,Lenoir,78704,30.24686,-97.75586
200,Street,78731,30.35675,-97.74736
201,Jacoby's Restaurant & Mercantile,78702,30.2515,-97.70737
202,Hopdoddy Burger Bar,78757,30.357621,-97.733102
203,Fonda San Miguel,78756,30.32545,-97.7435
204,Wu Chow,78701,30.2685154974461,-97.7478443831205
205,Estância Brazilian Steakhouse,78759,30.39326497962,-97.7474884023912
206,Juliet Italian Kitchen,78704,30.26184,-97.76006
207,La Pena,78701,30.26507,-97.74362
208,Italic,78701,30.2682,-97.74402
209,Zax Restaurant & Bar,78704,30.2589030496681,-97.7483948687172
210,Kome Sushi Kitchen,78751,30.314106,-97.714511
211,Brentwood Social House,78756,30.3322058641016,-97.7345593268946
212,Black Star Co-op Pub & Brewery,78752,30.3381716531677,-97.7188450098038
213,Song La,78705,30.286232,-97.742502
214,Chez Zee American Bistro,78731,30.3367272,-97.7579259
215,Little Deli & Pizzeria,78757,30.342656,-97.725445
216,Ranch 616,78701,30.27044,-97.7483
217,Siena Ristorante Toscana,78731,30.3603783346568,-97.7894139289856
218,Eldorado Cafe,78757,30.36198,-97.74246
219,Ceviche7,78705,30.29634,-97.74139
220,Sushi Hi,78705,30.296,-97.74264
221,The Beer Plant,78703,30.2965180811856,-97.7678042803603
222,The Peached Tortilla,78756,30.3252124786377,-97.7383422851563
223,Mi Madre's,78722,30.28412,-97.7189099
224,Bob's Steak & Chop House,78701,30.2660236358643,-97.7460403442383
225,Café Crêpe,78701,30.2638586673367,-97.7418548134918
226,Scoreboard,78750,30.36958,-97.80005
227,Tyson's Tacos,78751,30.3096229820831,-97.7153485985112
228,Julie's Noodles,78758,30.3611406172422,-97.7157957205178
229,Boiler Nine,78701,30.266862,-97.752903
230,Numero28,78701,30.2656718,-97.7484536
231,Knotty Deck & Bar,78759,30.3916541687047,-97.7499180085005
232,Visconti Ristorante & Bar,78746,30.30194,-97.82954
233,Mattie's,78704,30.244963,-97.762289
234,Terry Black's Barbecue,78704,30.2596915716907,-97.7548013627529
235,Eddie V's Prime Seafood,78759,30.389393,-97.752657
236,Golden Tiger,78701,30.26037,-97.73848
237,The Mediterranean Chef,78757,30.32987,-97.72806
238,Café No Sé,78704,30.2472100582746,-97.7504142968754
239,Sawyer & Co,78702,30.2513332366943,-97.7017822265625
240,Julie's Handmade Noodles,78705,30.290535,-97.744756
241,Kinfolk BBQ,78721,30.285716,-97.681696
242,Darna Mediterranean Cuisine,78701,30.27404,-97.74493
243,Via 313 Pizza - Oak Hill,78735,30.232823,-97.865637
244,Hopfields,78705,30.2985538576336,-97.7409893637848
245,Lima Criolla,78752,30.3260568380981,-97.7076581067457
246,Korean Grill,78753,30.378910719879,-97.6867842656067
247,DeSano Pizzeria Napoletana,78757,30.35851,-97.73065
248,Texas Chili Parlor,78701,30.2768182754517,-97.7421728521585
249,Fukumoto Sushi & Yakitori,78702,30.2647051303186,-97.731695353373
250,Cipollina,78703,30.2807,-97.75843
251,Las Palomas Restaurant & Bar,78746,30.271881,-97.800071
252,Santorini Cafe,78753,30.3876,-97.68399
253,Tommy Want Wingy,78701,30.260687,-97.738376
254,Pelons Tex-Mex,78701,30.26872,-97.7366
255,Tan My Restaurant,78758,30.3640941093519,-97.7141626141729
256,Veracruz All Natural,78758,30.375522753902,-97.7293153479695
257,Stinson's,78756,30.3151275,-97.7417583
258,Ruth's Chris Steak House,78701,30.2680442902426,-97.7435132861137
259,Tacodeli,78746,30.25827,-97.78747
260,Cultivo,78702,30.27496,-97.71324
261,Villarina's Pasta & Fine Foods,78646,30.273205,-97.800709
262,Chi'Lantro,78758,30.39442,-97.720184
263,Haru Sushi - formerly known Hanabi,78759,30.38673,-97.74074
264,Happy Chicks,78701,30.267617,-97.740781
265,Cabo Bob's Burritos,78705,30.295789,-97.7442669
266,Lavaca Teppan,78701,30.28003,-97.7413399
267,Taco Joint,78705,30.2916114,-97.734951
268,Xian Sushi and Noodle,78723,30.3029292726445,-97.6989614591002
269,MezzeMe Mediterranean Kitchen,78751,30.315702,-97.733463
270,Mongers Market + Kitchen,78702,30.254511,-97.717614
271,Micklethwait Craft Meats,78702,30.26846,-97.72518
272,Soursop,78745,30.216,-97.76183
273,Mandola's Italian,78751,30.3159319310134,-97.7336796197883
274,Poke-Poke,78704,30.2318,-97.75932
275,Galaxy Cafe,78703,30.27937,-97.75999
276,Cenote,78702,30.2605580485887,-97.7336812427286
277,Insennity,78705,30.2861986,-97.7425615
278,Cow Bells,78741,30.242325,-97.729232
279,Cafe Malta,78745,30.2126407338377,-97.8304787422343
280,Paco's Tacos,78723,30.3075,-97.70581
281,Arpeggio Grill,78752,30.3309659,-97.7155318
282,Discada,78702,30.2686025800296,-97.7246335521341
283,Vince Young Steakhouse,78701,30.26485,-97.74115
284,Home Slice Pizza,78751,30.3163524006061,-97.7183958217672
285,Magnolia Cafe South,78704,30.24448,-97.75194
286,Chinos Banditos,78735,30.23312,-97.86559
287,Korean Komfort,78705,30.30093,-97.73895
288,Shady Grove,78704,30.262983,-97.76193
289,Casino El Camino,78701,30.26636,-97.7377
290,Way South Philly Deli,78756,30.3243479175908,-97.7399788442358
291,Biscuits and Groovy,78751,30.3141044899503,-97.7196990873646
292,Holy Roller,78701,30.26948,-97.74943
293,Hot Mess,78702,30.26212,-97.72452
294,Musashino Sushi Dokoro,78705,30.2980839,-97.7475817
295,Ah Sing Den,78702,30.26485,-97.7313
296,Vivo Austin,78752,30.3254085112821,-97.7085228255478
297,Le Bleu,78758,30.37264,-97.7277
298,Magnolia Cafe,78703,30.277692,-97.771822
299,Bartlett's,78757,30.3567047119141,-97.7312469482422
300,Budare's Venezuelan Food,78756,30.32118,-97.7395
301,Licha's Cantina,78702,30.264108,-97.728966
302,Kismet Cafe,78751,30.30005,-97.72136
303,Poke Austin,78745,30.226666469675,-97.8212717301199
304,Pinthouse Pizza,78704,30.2360495666265,-97.7958310016646
305,Bazille,78758,30.4022442392014,-97.7204028617381
306,Pappadeaux Seafood Kitchen,78752,30.3253,-97.70515
307,Yard House,78758,30.4053,-97.72308
308,Kyōten Sushiko,78723,30.29891,-97.70818
309,ALC Steaks,78703,30.27712,-97.75098
310,Piranha Killer Sushi,78701,30.2641316338822,-97.7414880546311
311,College RoadHouse,78753,30.3646543475126,-97.6943624764681
312,Via 313 Pizza - North Campus,78705,30.2978794228869,-97.7415114110085
313,Austin Daily Press,78702,30.2802176628505,-97.7211093269837
314,Galaxy Cafe,78759,30.37318,-97.75572
315,June's,78704,30.2463083255216,-97.7511458576444
316,FoodHeads,78705,30.30091,-97.7403
317,Buenos Aires Café - Este,78702,30.26414,-97.73044
318,Grizzelda's,78702,30.252196981289,-97.7082111244723
319,Halal Bros,78705,30.2925128936768,-97.7416687011719
320,Crepe Crazy,78704,30.24154,-97.78456
321,Waltons Fancy and Staple,78701,30.26951,-97.749014
322,Bufalina,78702,30.2584294,-97.72879
323,Il Brutto,78702,30.26245,-97.72619
324,Xian Noodles,78758,30.4010543570803,-97.727352976799
325,North By Northwest Restaurant & Brewery - Stonelake,78759,30.39065,-97.73754
326,Uncle Julio's,78701,30.2645838,-97.7414455
327,Jang's Chimac Cafe,78752,30.3340600057404,-97.7164900302887
328,East Side King,78702,30.2626674,-97.7251338
329,La Condesa,78701,30.2656391,-97.7477811
330,Veracruz All Natural,78702,30.25793,-97.72603
331,Turntable Eatery,78751,30.31281,-97.7150599
332,Halal Bros,78758,30.39257,-97.70742
333,Andiamo Ristorante,78758,30.382337,-97.723175
334,Agazajo's Flying Pizza & Italian Restaurant,78744,30.213307,-97.68383
335,Zocalo Café,78703,30.2801055908203,-97.7594833374023
336,Local Slice Pizza,78754,30.33067,-97.66709
337,Granny's Tacos,78702,30.2642655487135,-97.7281585084058
338,Waller Creek Pub House,78701,30.2664203643799,-97.7357711791992
339,Batch - Craft Beer and Kolaches,78723,30.2871694082172,-97.7031195536256
340,Azul Tequila,78731,30.3427391,-97.7640076
341,La Traviata,78701,30.265912,-97.744071
342,Red Lotus Asian Grille,78750,30.36958,-97.80005
343,Via 313 Pizza - West 6th,78701,30.2702542,-97.7497127
344,Violet Crown Cinema,78701,30.26554,-97.74806
345,Pinthouse Pizza,78756,30.3187905381179,-97.7391115483136
346,Biscuits + Groovy - South,78704,30.261005,-97.757362
347,Country Boyz Fixins,78721,30.2792292692514,-97.6871675728775
348,Agostino's Pizza,78701,30.25922,-97.73889
349,The Buzz Mill,78741,30.241682,-97.726864
350,Doc B's Fresh Kitchen,78758,30.402758,-97.719745
351,Salt & Time,78702,30.26266,-97.72113
352,It's Italian Cucina,78704,30.25243,-97.76454
353,Yuyo,78722,30.28407,-97.72177
354,Lucy's Fried Chicken,78704,30.24051,-97.75335
355,Whip In,78704,30.2379359562403,-97.7394390106201
356,Mai Thai Restaurant,78701,30.26427,-97.74127
357,Cherrywood Coffeehouse,78722,30.29332,-97.71597
358,Dawa Sushi,78704,30.2516759671733,-97.7538518413175
359,Nosh & Bevvy,78757,30.3654772101226,-97.7288885435165
360,Vespaio Ristorante,78704,30.24726,-97.75081
361,Bao'd Up,78723,30.2986505538655,-97.7043759638237
362,Food Food,78703,30.3042316436768,-97.7640686035156
363,Workhorse Bar,78751,30.31771,-97.721675
364,Geraldine's,78701,30.26029,-97.73927
365,Elaine's at Eastside Cafe,78722,30.284,-97.7195
366,The Driskill Grill,78701,30.2686613206705,-97.7417146061516
367,Kura Revolving Sushi Bar,78752,30.3375294200535,-97.7175760904836
368,Fricano's Deli,78705,30.288094,-97.742851
369,Velvet Taco,78758,30.40101,-97.72247
370,Via 313 Pizza - Rainey Street,78701,30.257924,-97.738618
371,JeonJu Korean Grill,78745,30.2138023,-97.7555488
372,Modern Market Eatery,78759,30.395069,-97.749307
373,Noble Sandwich,78756,30.3190872591982,-97.7389053106308
374,Mother's Cafe & Garden,78751,30.304374,-97.726005
375,360 Uno,78746,30.3365693076126,-97.803835041867
376,Cenote,78723,30.3204456874673,-97.6969876885414
377,The Halal Gurus,78704,30.2419105269154,-97.7595381896206
378,Vinaigrette,78704,30.2415789297179,-97.7519873902202
379,Hi Hat Public House,78702,30.26023,-97.71893
380,Otoko,78704,30.2474,-97.75006
381,Pokeatery,78723,30.30557,-97.70986
382,Poke Bay,78705,30.282849477862,-97.7417685091496
383,T-Loc's Sonora Hot Dogs,78756,30.3211689,-97.7395055
384,All Star Burger,78746,30.33636,-97.8051799
385,Enoteca Vespaio,78704,30.24732,-97.75079
386,Z'Tejas Mexican Restaurant and Grill,78703,30.272638,-97.756051
387,Toss Pizzeria & Pub,78704,30.2363363,-97.762862
388,Plow Burger,78741,30.24172,-97.7269
389,Rise Biscuit Donuts,78705,30.28979,-97.74157
390,Truluck's,78759,30.3952662489598,-97.7454305690891
391,Wholly Cow,78704,30.24292,-97.78384
392,Julio's Café,78751,30.30495,-97.72617
393,Wilder Wood Restaurant & Bar,78702,30.26517,-97.72859
394,Taco Flats,78756,30.330914,-97.740225
395,Chef Hong Food Trailer,78705,30.28793,-97.74731
396,Gusto Italian Kitchen & Wine Bar,78756,30.3183136593457,-97.7399416283112
397,Trio,78701,30.2616526884221,-97.7425342798233
398,Chuy's,78704,30.263803,-97.763323
399,Abel's On the Lake,78703,30.29493,-97.78381
400,Eden East,78702,30.2578792675725,-97.7002314099258
401,Me Con Bistro,78745,30.2129934390938,-97.8294818787975
402,Cafe Nena'i,78741,30.22724,-97.70237
403,Spokesman,78745,30.2164715,-97.7618791
404,Arlo's,78701,30.26942,-97.73618
405,Manuel's,78701,30.2655782,-97.7437069
406,Cafe Java- Austin,78758,30.4000609323005,-97.7041617306885
407,JINYA Ramen Bar,78758,30.4002508252956,-97.7232788317383
408,Josephine House,78703,30.280623,-97.759015
409,Counter Cafe East,78702,30.26166,-97.721504
410,The Happy Lobster Truck,78701,30.2707290649414,-97.7432250976563
411,Bufalina Due,78757,30.3413560722054,-97.7385051851856
412,Iron Works Barbecue,78701,30.2622132062534,-97.7389470883606
413,Het Say Vietnamese Kitchen,78741,30.23015,-97.73257
414,Casa De Luz,78704,30.26451,-97.76159
415,Biderman's Deli,78731,30.356237,-97.758033
416,Blenders and Bowls - Downtown,78701,30.265971,-97.741606
417,MOD Pizza,78723,30.3034239717993,-97.6989206925209
418,Turf N Surf Po' Boy,78704,30.24141,-97.78495
419,MOD Pizza,78741,30.2432794101908,-97.728215134652
420,El Chile Café Y Cantina,78722,30.28351,-97.72256
421,Hat Creek Burger Company Westlake,78746,30.29615,-97.82695
422,Luke's Inside Out,78704,30.25502,-97.76177
423,Sway,78758,30.4004932869176,-97.7227822272256
424,Tuk Tuk Thai Cafe,78745,30.21589,-97.79683
425,Kerbey Lane Cafe Westlake,78746,30.2921742295001,-97.8273623315756
426,Yard Bar,78757,30.34303,-97.73921
427,Black's BBQ,78705,30.29855,-97.74109
428,DIY Thai Food,78722,30.2965564727783,-97.7074203491211
429,El Taquito,78741,30.243582,-97.730586
430,Halal Bros,78701,30.2679627,-97.7387739
431,Tamale House East,78702,30.2615296296076,-97.7244004474619
432,Big Kahuna,78745,30.23147,-97.81871
433,Foreign & Domestic,78751,30.3171071,-97.7196383
434,Garrison,78701,30.26198,-97.73862
435,Olamaie,78701,30.2798862457275,-97.7436752319336
436,Poke House,78759,30.4061981042147,-97.7463034540415
437,Torchy's Tacos,78705,30.2936988,-97.7417964
438,Thai 2 U,78704,30.23112,-97.78716
439,Hopdoddy Burger Bar,78751,30.31535,-97.73485
440,101 By Teahaus,78752,30.33712,-97.71728
441,G Bar and Bistro,78744,30.2125737,-97.7053511
442,In The Coconut,78702,30.25568,-97.72109
443,Vino Vino,78751,30.3069966,-97.7352997
444,Torchy's Tacos,78759,30.3707226502842,-97.7562901579395
445,Chi'Lantro,78741,30.24369,-97.7285
446,El Chipirón,78704,30.2432095786234,-97.7811677724685
447,Austin's Habibi,78703,30.26957,-97.75303
448,Pacha,78756,30.317377,-97.7406
449,Sarah's Mediterranean Grill & Market,78756,30.32455,-97.740112
450,Cabo Bob's Burritos,78757,30.3601,-97.74075
451,Threadgill's,78704,30.2583831730437,-97.7485205293009
452,Look Noodles & More,78705,30.282631,-97.742321
453,Pueblo Viejo,78702,30.2648784981505,-97.7339497333556
454,Flower Child,78758,30.40368,-97.72156
455,J T Youngblood's,78723,30.2981255804541,-97.7055894748688
456,Modern Market,78746,30.2727063,-97.8002069
457,Yellow Jacket Social Club,78702,30.26159,-97.72456
458,Unit-D Pizzeria,78722,30.2848241776318,-97.7169821018524
459,Cypress Grill,78749,30.22378213933,-97.8389456767437
460,Torchy's Tacos,78704,30.2453955434005,-97.751556154546
461,Li'l Nonna's,78741,30.2416820526123,-97.7268676757812
462,Casa Colombia,78702,30.2608,-97.71482
463,Chen Z Noodle House,78735,30.23312,-97.86559
464,Las Trancas,78702,30.2596927300688,-97.731671333313
465,ASTI Trattoria,78751,30.30499,-97.72646
466,Top Notch,78757,30.351081,-97.733436
467,EastSide Tavern,78702,30.2589905157159,-97.7287379999974
468,Lupe Tortilla,78746,30.291556,-97.827443
469,Mour Cafe,78741,30.2435537462959,-97.7287131894612
470,The Limestone Kitchen Restaurant & Lounge,78744,30.210602,-97.753472
471,Thai Kun,78758,30.4016022028548,-97.7223529556808
472,ATX Cocina,78701,30.26534,-97.74905
473,Guero's Taco Bar,78704,30.249373,-97.750189
474,Hoover's Cooking,78722,30.2843863,-97.720344
475,Tillery Kitchen and Bar,78702,30.25153,-97.70872
476,P. Terry's Burger Stand,78745,30.316772,-97.7068
477,Rollin Smoke BBQ,78702,30.2628836718604,-97.7268981039445
478,ñoños tacos,78753,30.3480349675096,-97.7032811567187
479,Marye's Gourmet Pizza,78746,30.2788789699226,-97.807303494104
480,Burrito Factory,78705,30.2833881378174,-97.7413177490234
481,Arlo's,78702,30.262648,-97.724139
482,Ola Poke,78752,30.335921,-97.720494
483,Hao-Q Asian Kitchen,78731,30.3562298,-97.7580338
484,Torchy's Tacos,78723,30.3035163105056,-97.6989054679871
485,Belly Up,78701,30.2608476,-97.7382623
486,Stubb's Bar-B-Q,78701,30.26857,-97.73617
487,La Cocina de Consuelo,78756,30.316091,-97.74143
488,Balkan Cafe & Grill,78753,30.3876,-97.68399
489,"Rudy's ""Country Store"" & Bar-B-Q",78746,30.26381,-97.81522
490,Gravy,78719,30.2965856,-97.7072901
491,The Austin Club,78701,30.270942,-97.7408389
492,Michi Ramen,78704,30.24134,-97.78372
493,The County Line,78746,30.2976233367595,-97.8359489609215
494,MAX's Wine Dive,78701,30.264254,-97.74129
495,County Line On The Lake,78731,30.3571242748654,-97.7856454079346
496,Second Bar + Kitchen,78758,30.4023750200579,-97.721345834434
497,Austin Terrier,78731,30.357109,-97.748635
498,Habanero Mexican Cafe,78704,30.24122,-97.75822
499,Nasha,78702,30.26379,-97.7248
500,J. Leonardi's Barbeque,78702,30.26889,-97.72788
501,1776 Cheesesteak,78741,30.24172,-97.7269
502,The Hot Box Diner,78756,30.3255271,-97.7271742
503,Slake Cafe,78701,30.268785,-97.7413576
504,The Driskill Bar,78701,30.26807,-97.74168
505,Baton Creole,78702,30.2651,-97.73155
506,Caroline,78701,30.26873,-97.74217
507,Taste of Ethiopia,78704,30.2259650875173,-97.7619186684117
508,Cannon + Belle,78701,30.26506,-97.73862
509,Fleming's Prime Steakhouse & Wine Bar,78701,30.26374,-97.74129
510,Sao Paulo's Restaurant,78705,30.29036,-97.73425
511,A Touch of Soul,78702,30.274121,-97.720185
512,Austin Daily Press,78702,30.25232,-97.70316
513,Flower Child,78701,30.2657509,-97.7488719
514,Lucky's Puccias and Pizzeria,78703,30.2736879902657,-97.7635522526398
515,Little Sheep Mongolian Hot Pot,78705,30.2879952011714,-97.7440275883606
516,Epicerie Cafe & Grocery,78756,30.3245258331299,-97.7436752319336
517,Milano Cafe,78735,30.2396599913685,-97.8319001197815
518,Kebabalicious,78704,30.2679261455238,-97.7384948730469
519,Four Brothers,78704,30.2641,-97.76237
520,Counter Culture,78702,30.254728,-97.717401
521,Osio,78746,30.2574765541101,-97.8075747663392
522,Beirut,78758,30.3961942,-97.7279217
523,Bender Bar & Grill,78798,30.2242720206809,-97.7673519325409
524,Red's Porch,78704,30.23987,-97.78819
525,Galloway's Sandwich Shop,78702,30.27398,-97.71937
526,Pho Saigon Noodle House,78753,30.3780509244419,-97.6873283075485
527,Taqueria Morelos,78744,30.20475,-97.68382
528,Le Politique,78701,30.26534,-97.74905
529,Tso Chinese Delivery,78722,30.2956721501197,-97.7173059828814
530,Deckhand Oyster Bar - South,78704,30.2350720320656,-97.7933467962823
531,Shake Shack,78704,30.2558660897055,-97.7617584698364
532,Lucy's Fried Chicken,78756,30.328717,-97.740235
533,Mi Tradición,78758,30.3635419647482,-97.7193168289696
534,Gringa's Street Tacos,78758,30.38413,-97.72339
535,Basin Handcrafted,78702,30.255323,-97.720232
536,Pluckers,78705,30.2862846755023,-97.7449311760574
537,Chi-Chi's Food Truck,78702,30.2611612545487,-97.7137652412057
538,Rice Bowl Cafe,78753,30.382525452192,-97.6885507713028
539,Pool Burger,78703,30.2778,-97.7725899
540,Brazas Taco House,78752,30.33406,-97.7164899
541,China's Family Restaurant,78705,30.28271,-97.7424
542,Oakwood BBQ,78753,30.37792,-97.6795
543,Hyde Park Bar & Grill Central,78751,30.30419,-97.72668
544,La Holly,78702,30.2591865899542,-97.7144455556234
545,Big Vinny's Bbq,78704,30.2459408,-97.7514741
546,Papalote Taco House,78704,30.24351,-97.78189
547,The B's Kitchen -Vietnamese & Asian Cuisine,78756,30.3212623822948,-97.7399045298369
548,Zoës Kitchen,78745,30.2279418615523,-97.820822887662
549,P. Terry's Burger Stand,78704,30.2616110513805,-97.7585685119583
550,Sushi Zushi,78703,30.274161,-97.764474
551,Pollo Regio,78723,30.31959,-97.6889
552,Holy Taco!,78705,30.29551,-97.74174
553,El Tacorrido,78753,30.3623251,-97.697608
554,Toulouse Cafe and Bar,78758,30.40283,-97.72161
555,Peace Bakery and Deli,78753,30.381804,-97.687232
556,Mary's Cafe,78705,30.2914204,-97.7269608
557,Banh Mi Ngon,78756,30.31497,-97.74143
558,Brio Tuscan Grille,78759,30.3934578445392,-97.7480925085724
559,El Norteno Pollos Asados,78725,30.2842526882887,-97.6598478108644
560,Supper Friends,78702,30.25963,-97.70663
561,Dos Batos - Woodfired Tacos,78757,30.35692,-97.73525
562,Big Easy Bar and Grill,78702,30.2738255,-97.7204771
563,Vaquero Taquero,78751,30.304595,-97.725731
564,The Cavalier,78702,30.262942,-97.714676
565,Halcyon,78701,30.2669600634204,-97.7457208584112
566,School House Pub,78722,30.284213,-97.718819
567,Mum Foods,78722,30.2972641,-97.707266
568,El Borrego De Oro,78704,30.2242723720297,-97.7634823322296
569,Brick Oven on 35th,78703,30.307613,-97.7509029
570,Papa Joe's Tex-Mex,78702,30.26098,-97.69832
571,The Mean Eyed Cat,78703,30.27452,-97.76496
572,Bistro Vonish,78751,30.3152493228979,-97.7165968411313
573,First Chinese Barbecue,78753,30.3788135342932,-97.6864677649429
574,Tony's Jamaican Food,78702,30.2687816619873,-97.7279052734375
575,Kosmos,78705,30.29298,-97.74177
576,Mama Mal's Italian Cuisine,78704,30.2535515,-97.7635592
577,Stella Public House,78723,30.2978198875665,-97.7055143730163
578,Matt's El Rancho,78704,30.24514,-97.77924
579,Bon Bon Banh Mi,78705,30.2864138440842,-97.7428896482274
580,34th Street Cafe,78705,30.3026485443115,-97.7452239990234
581,El Tacorrido,78756,30.32639,-97.73938
582,Kabobzi Mediterranean Grill,78758,30.39573,-97.71953
583,Lee's Meat Market,78798,30.3084854393881,-97.7506077289581
584,Café Crème,78741,30.23187,-97.73568
585,In-N-Out Burger,78751,30.30427,-97.715451
586,Thai Kun at Whisler's,78702,30.262006,-97.722595
587,Ramona's Hummus & Pita,78702,30.264299,-97.7277308
588,Maudie's Café,78703,30.28281,-97.77557
589,Cover 3,78757,30.3586849562721,-97.7350158670119
590,Llama's Peruvian Creole,78701,30.26778,-97.73892
591,ATX Jamaican Grill,78704,30.24433,-97.75757
592,Sap's Fine Thai Cuisine,78756,30.3335091520894,-97.7408943834809
593,Rosita's Al Pastor,78798,30.2418985962868,-97.728518396616
594,Kesos Taco House,78701,30.28264,-97.74444
595,Kiwami Ramen,78757,30.358733,-97.734482
596,Maggiano's Little Italy,78758,30.39556,-97.72694
597,Tiny Boxwoods,78703,30.30606,-97.74975
598,Flyrite,78702,30.261577105647,-97.7180641517043
599,El Naranjo,78701,30.25949,-97.73819
600,Don Gume's Tacos & More,78704,30.2572,-97.7465
601,East Side Pies,78702,30.268782,-97.72407
602,Fresa's - South 1st,78704,30.2478675842285,-97.7551193237305
603,Austin's Habibi,78705,30.2915803,-97.723348
604,Kerbey Lane Cafe,78705,30.29122,-97.7415
605,Soto - South Lamar,78704,30.25576,-97.76252
606,Texas Ranch BBQ,78704,30.22661,-97.76223
607,D K Sushi & Seoul Asian Food Market,78751,30.325165,-97.727198
608,La Matta,78702,30.26222,-97.72673
609,G'Raj Mahal Cafe & Lounge,78701,30.2582946504594,-97.7386422248052
610,Flaming Pizza,78758,30.3958767213967,-97.7274357995616
611,Caffe Aragona,78701,30.27148,-97.74181
612,Casa Chapala Mexican Grill & Tequila Bar,78758,30.3737166,-97.7255182
613,Cedar Door,78701,30.2640756302475,-97.74259017472
614,Gourmands Neighborhood Pub,78702,30.26265,-97.71539
615,Mission Dogs,78702,30.257579,-97.726537
616,Poke Me Long Time,78702,30.26315,-97.72591
617,Fat Sal's Deli - Austin,78705,30.29092,-97.74152
618,Via 313 Pizza - East Side,78702,30.26219,-97.72305
619,Lustre Pearl East,78702,30.2530237536547,-97.7107933120138
620,Tacodeli,78758,30.40744,-97.71322
621,Cannone Cucina Italiana,78704,30.2635955810547,-97.7626953125
622,Trudy's,78705,30.295775,-97.741048
623,Korea House,78757,30.35905,-97.73459
624,Tex-Mex Joe's,78752,30.344343,-97.714959
625,Los Jaliscienses,78723,30.321597,-97.702373
626,Hecho En Mexico,78749,30.2284872486666,-97.8634008356514
627,Pecos Tacos,78701,30.2699521,-97.7501068
628,Billy's on Burnet,78756,30.3220291137695,-97.7397613525391
629,Taco More - Austin,78741,30.240271,-97.728518
630,Habesha Ethiopian Restaurant & Bar,78723,30.321129,-97.705905
631,Pizza On Point,78705,30.286232,-97.742502
632,Flyrite Chicken,78757,30.3407747,-97.7382365
633,Artessano,78702,30.2639255523682,-97.7298965454102
634,Poke-Poke,78756,30.324867,-97.743266
635,Salsa and Kimchi,78741,30.2430958,-97.7304608
636,Con Madre Kitchen,78704,30.2370468,-97.7490891
637,Taqueria Anyeli,78705,30.30179,-97.744874
638,Ernie's Tex Mex,78704,30.2429831343729,-97.7520115301013
639,Good Things,78701,30.2621638117921,-97.738241404295
640,Hoboken Pie,78701,30.26822,-97.73678
641,Taco More,78758,30.36793634355,-97.7063755938472
642,Austin Ale House,78701,30.26854,-97.74549
643,NeWorlDeli,78751,30.30642,-97.73545
644,La Fruta Feliz,78723,30.28679,-97.70447
645,Hut's Hamburgers,78703,30.2701892852783,-97.7510223388672
646,Gobble Gobble,78701,30.259389,-97.7382435
647,El Secreto De Abuela,78702,30.2564749782332,-97.6924788366944
648,Tacos Ivan,78731,30.352,-97.75657
649,Marcelino's,78702,30.26257,-97.70359
650,K Cupbop,78701,30.26635,-97.73763
651,La Sabroza,78741,30.2246524566919,-97.7034115791321
652,Brown's Bar-B-Que,78704,30.24941,-97.76696
653,Desi Halal BBQ,78722,30.28398,-97.71984
654,All My Ex's,78705,30.29154,-97.74146
655,The Lucky Belly,78702,30.255145,-97.720078
656,Four Brothers,78701,30.25922,-97.73889
657,Drink Well,78751,30.31728,-97.72062
658,Thai Spice Cafe,78746,30.3341859520805,-97.808039907069
659,Casa Vallarta,78744,30.2066289755201,-97.7182224020362
660,Tropicana Cuban Restaurant,78723,30.3664948620654,-97.695752300925
661,Tarka Indian Kitchen,78745,30.230872,-97.817546
662,The Pizza Press,78705,30.29072,-97.74201
663,Quality Seafood Market,78751,30.31831,-97.71223
664,Otherside Deli,78705,30.30189,-97.73936
665,Red's Porch,78759,30.400058,-97.739168
666,Lucky's Puccias,78701,30.26569,-97.74394
667,Kebabalicious,78702,30.264476,-97.728304
668,Tacos Y Tortas El Chilango,78753,30.3762,-97.68926
669,Super Thai Cuisine,78704,30.24926,-97.76855
670,New Fortune Chinese Seafood Restaurant,78753,30.3776346736639,-97.6879827004826
671,Thai Kitchen,78705,30.2967646,-97.7417425
672,Counter Cafe,78703,30.2725857,-97.753714
673,Din Ho Chinese BBQ,78758,30.361341,-97.715612
674,Thistle Cafe,78701,30.268271,-97.744981
675,Kim Phung Restaurant  Riverside,78741,30.23765,-97.72654
676,Falafel Fusion,78731,30.35292,-97.75394
677,Austin Beer Garden Brewing Company,78704,30.2453753579274,-97.7689108006329
678,Weather Up,78702,30.2573650267811,-97.7249485249197
679,Salata,78759,30.3887770644236,-97.7329979878357
680,BarChi Sushi,78701,30.265278,-97.7454714
681,Chosun Korean BBQ,78752,30.329818,-97.706662
682,Guild,78756,30.3060027879118,-97.7431749925017
683,Rosewood,78702,30.26835,-97.72626
684,Taverna,78701,30.26513,-97.74633
685,Kebabalicious,78701,30.2652053436875,-97.7440714913087
686,Pappasito's Cantina,78752,30.3268833125071,-97.7049401481323
687,Tacos Guerrero,78702,30.2526512,-97.7129882
688,Bombay To Kathmandu Kitchen,78753,30.3666867100134,-97.6953087335907
689,Maudie's Milagro,78746,30.33636,-97.8051799
690,Chetos Tacos,78751,30.2992101266508,-97.7221900597215
691,Kt's Deli,78701,30.27788,-97.74206
692,Javelina,78701,30.258020401001,-97.7388458251953
693,Phara's Mediterranean Cuisine,78751,30.31746,-97.72196
694,Yoshi Ramen,78705,30.2917774441927,-97.723264609787
695,Quattro Gatti Ristorante e Pizzeria,78701,30.271351,-97.742053
696,Veggie Heaven,78703,30.27432,-97.76448
697,Amaya's Taco Village,78751,30.3192128219237,-97.7079937677168
698,Wingzup,78751,30.3000422859832,-97.7214402221356
699,Taqueria Gardenia,78752,30.3341023,-97.7066095
700,Taco-Mex,78722,30.28483,-97.7149
701,Tortilleria Rio Grande,78753,30.37612,-97.67356
702,Haymaker,78722,30.28479,-97.71757
703,Fareground At One Eleven,78701,30.26368,-97.74367
704,i Fratelli Pizza North - Austin,78759,30.392389069451,-97.745244987309
705,Shake Shack,78759,30.3990835189245,-97.7257996994751
706,P. Terry's Burger Stand,78741,30.2322659482391,-97.7363124016109
707,Bar-B-Q Heaven,78701,30.2672328948975,-97.7371826171875
708,Cover 3,78703,30.2761773651651,-97.7656084588242
709,Dock & Roll Diner,78704,30.2641,-97.76237
710,Shu Shu's Asian Cuisine,78757,30.36333,-97.72846
711,Snarf's Sandwiches,78705,30.288385278643,-97.7286499134905
712,Kerlin BBQ,78702,30.2579056948034,-97.725737653535
713,My Thai Mom,78701,30.272192,-97.741658
714,Iron Cactus,78701,30.26734,-97.73941
715,Pho Thaison,78757,30.3577892109939,-97.733040337859
716,Tito Adobo,78704,30.2442876827648,-97.7575834840536
717,Marker 10,78704,30.2609943392122,-97.7468085110451
718,Aster's Ethiopian Restaurant,78722,30.28732,-97.72503
719,Terry's Seafood and Chicken,78702,30.2815,-97.70281
720,Edwin's Sports Bar,78701,30.26628,-97.73585
721,ALLI Mexican Cuisine,78758,30.3599465,-97.7040102
722,Halal Time,78702,30.2631107184963,-97.7272480692696
723,Conscious Cravings,78722,30.2965564727783,-97.7074203491211
724,SquareRut Kava Bar,78704,30.2619680504078,-97.7618099749088
725,Louie's,78745,30.218606,-97.76579
726,Brick Oven,78701,30.27263,-97.73457
727,P. Terry's Burger Stand,78705,30.30176,-97.74487
728,Tarka Indian Kitchen,78757,30.3569992815093,-97.734911441803
729,Black Walnut Café,78730,30.395384,-97.847428
730,Takoba,78702,30.26413,-97.72737
731,Word of Mouth Bakery,78703,30.2766061,-97.7509919
732,Saigon Le Vendeur,78702,30.2613162994385,-97.7145767211914
733,Torchy's Tacos,78704,30.236755,-97.762718
734,Big Fat Greek Gyros,78701,30.2583972,-97.7385941
735,Phil's Icehouse,78756,30.33218,-97.74032
736,Cafe Bistro,78746,30.2587799228757,-97.8084361553192
737,Barley Bean,78704,30.23962,-97.78914
738,Swamp Daddy's,78702,30.269,-97.72457
739,Turf N Surf Po' Boy,78758,30.4008323136614,-97.7229822854584
740,First Watch,78757,30.35508,-97.73323
741,MOD Pizza,78753,30.4054812119506,-97.6738198667533
742,San Francisco Bakery & Café,78757,30.3594731452811,-97.735598096828
743,Scholz Garten,78701,30.2773110437902,-97.7365262639869
744,Saperlipopette,78704,30.2516795289291,-97.7540185043027
745,Lua Brazil,78702,30.26163,-97.71942
746,Milto's,78705,30.29564,-97.7424
747,Austin Food Company,78704,30.2621,-97.7619
748,Monk's Momo,78701,30.2584,-97.73859
749,El Rinconcito Chapin,78752,30.33371,-97.72113
750,Pluckers Wing Bar,78758,30.3729185008493,-97.727730652531
751,Better Half Coffee & Cocktails,78703,30.27137,-97.75839
752,Sushi Junai,78701,30.279049,-97.741722
753,Torchy's Tacos,78756,30.3233778,-97.7392263
754,i Fratelli Pizza Downtown Austin,78701,30.27801,-97.74442
755,La Orxateria,78751,30.3223474350001,-97.725692935716
756,HTB cafe,78712,30.27742,-97.7353
757,Patsy's Cafe,78741,30.21353,-97.72814
758,Da Slice,78722,30.29307,-97.7202
759,El Mercado,78701,30.27973,-97.74147
760,The Blind Cafe Experience,94107,37.76324,-122.40465
761,Scotty's BBQ,78702,30.253308,-97.712918
762,Techo Mezcaleria & Agave Bar,78722,30.28412,-97.7189099
763,NadaMoo!,78704,30.25054,-97.76547
764,Coffee Shark,78730,30.371913,-97.802155
765,Java Noodles,78741,30.229426,-97.729323
766,Ichiban,78757,30.34921,-97.73588
767,In-N-Out Burger,78704,30.2386332,-97.7885877
768,Black Walnut Cafe,78758,30.3953740973379,-97.7197363657456
769,Paperboy,78704,30.2315,-97.78774
770,Tarbouch Lebanese Grill & Hookah,78704,30.2371318596233,-97.7496900781989
771,The Omelettry,78751,30.3067274782042,-97.7154679810898
772,Regal Ravioli,78704,30.250291,-97.755502
773,Rogers Boyz BBQ,78753,30.3772761880226,-97.6746908202767
774,Onion Creek Grille,78744,30.2144718170166,-97.7506256103516
775,Mr. Natural,78702,30.25696,-97.7245
776,Tacodeli,78757,30.3487159938227,-97.7351448406143
777,Live Oak Market,78745,30.22921,-97.78924
778,Elotes Fanny,78753,30.3599066970957,-97.6907004224425
779,Mad Greens - South Austin,78745,30.2280559255079,-97.8207520944156
780,Torchy's Tacos,78749,30.22135,-97.83949
781,Abuelo's,78746,30.2541871842038,-97.8074015683589
782,Dan's Hamburgers - Austin,78702,30.2584686279297,-97.6938400268555
783,Twin Lion Chinese Restaurant,78759,30.40031,-97.74784
784,Jo's Coffee,78704,30.251045,-97.749371
785,Tacos Las Amazonas,78745,30.2122244914934,-97.7702414989471
786,Baguette House,78753,30.3771243408178,-97.6868110876968
787,Curra's Grill,78704,30.23709,-97.749441
788,1st Choice Mediterranean & Moroccan Food,78701,30.267015441878,-97.738373503089
789,Cluck-N-Burger,78758,30.38409,-97.71473
790,The Original Hoffbrau,78701,30.2696797743256,-97.7492015067996
791,Taco Ranch,78746,30.2334104527826,-97.8245368394414
792,La Madeleine,78723,30.3062057595176,-97.7084958759762
793,The Tipsy Pizza,78745,30.209454,-97.782287
794,Sundaze,78704,30.2291525893849,-97.7839600532359
795,Joe's Bakery & Coffee Shop,78702,30.2610703,-97.7166672
796,Z-Tejas Southwestern Grill,78759,30.38934,-97.75211
797,Tita's,78756,30.321264,-97.739631
798,BD Riley's Irish Pub at Mueller,78723,30.2982552810187,-97.7049514541841
799,Modern Market,78701,30.26616,-97.74334
800,Conscious Cravings,78704,30.25096,-97.75421
801,Biryani & Co.,78759,30.40681,-97.74673
802,Sosa Mediterranean Foods,78701,30.26188,-97.73978
803,Patika,78704,30.2475078504171,-97.772622294724
804,Crossroads Farm to Truck,78704,30.261071771039,-97.7572894468904
805,Snap Kitchen,78703,30.27193,-97.75454
806,La Traila at Mesa,78759,30.37399,-97.75526
807,Hecho En Mexico,78741,30.2236087806246,-97.7037840109176
808,IM Thai Cuisine,78745,30.2302979315386,-97.8156566619873
809,The Commons Cafe,78758,30.3854041546583,-97.7237219363451
810,Punch Bowl Social Austin,78758,30.400207432783,-97.725505609787
811,Tx Shawarma,78704,30.2443269490385,-97.7580774904749
812,Trudy's,78757,30.3706003956709,-97.7276092788008
813,Pad Thai Cuisine,78723,30.305907,-97.708225
814,Snap Kitchen,78746,30.2962352626857,-97.8329408780487
815,Longhorn Chicken,78705,30.29051,-97.74464
816,The Doughminican,78702,30.269063,-97.728267
817,RA Sushi Bar Restaurant,78701,30.26633,-97.74464
818,Sabor A Honduras,78741,30.2392468046738,-97.7196483165448
819,Fresa's Chicken al Carbon,78703,30.27446,-97.75216
820,Bananarchy,78705,30.2883451,-97.7416832
821,Sarku Japan,78746,30.257642,-97.807724
822,Kerbey Lane Cafe,78704,30.2418,-97.78381
823,Sugar Mama's Bakeshop,78704,30.24613,-97.7564
824,Oasis Texas Brewing Company,78732,30.40615,-97.87492
825,Roland's Soul Food And Fish,78702,30.27621,-97.71617
826,S-H Donuts,78723,30.30054,-97.68516
827,BD Riley's Irish Pub Downtown,78701,30.267778,-97.741059
828,Texas French Bread,78705,30.29617,-97.74407
829,The Dogwood,78758,30.4010134708864,-97.7229946800656
830,Thai Kruefha,78702,30.26914,-97.72843
831,Zoës Kitchen,78730,30.395293219653,-97.8484651596861
832,The Steeping Room,78756,30.31218,-97.73866
833,Arlo's,78705,30.29551,-97.7417399
834,Nau's Enfield Drug,78703,30.27998,-97.759
835,Papadom,78701,30.26611,-97.74516
836,Burger Bar On Congress,78701,30.264545,-97.74329
837,Thai Fresh,78704,30.24788,-97.76167
838,Glory Hole Hot Dogs,78701,30.25922,-97.73889
839,Victoria Provisions,78731,30.3542409,-97.7742702
840,Lotus Hunan,78746,30.2730240104014,-97.7994064273714
841,Draft Shack Oyster Bar,78758,30.4062692,-97.7202672
842,Oma's Kitchen,78701,30.2829005570476,-97.7417960110667
843,Ray's World Taco,78758,30.398394,-97.727842
844,Noon Mediterranean,78723,30.30254,-97.69826
845,Lula Mae's Catering and BBQ,78722,30.28891,-97.70775
846,Kona Grill,78758,30.4015378600284,-97.7272617816925
847,Flavia's Kitchen,78704,30.244371,-97.758238
848,Madam Mam's,78705,30.29093,-97.74238
849,First Wok,78745,30.2078941688822,-97.7810110687044
850,Beto's Mexican Restaurant,78702,30.25687,-97.70228
851,Monkey Nest Coffee,78756,30.32769,-97.73941
852,Ya Hayati,78701,30.26639,-97.7400638336727
853,The Funkadelic,78745,30.2324570077475,-97.8117161280777
854,Polvo's Mexican Restaurant,78704,30.24532,-97.75745
855,Tarka Indian Kitchen,78746,30.4009225024898,-97.7224700432282
856,Ken's Subs Tacos & More,78754,30.35157,-97.67574
857,Shanghai Restaurant,78752,30.3294153,-97.7066257
858,Las Cazuelas Mexican Restaurant,78702,30.2574939727783,-97.7265472412109
859,The Hideout Coffeehouse,78701,30.26856,-97.74215
860,Black Sheep Lodge,78704,30.24837,-97.77118
861,The Yard On Waller Creek,78701,30.2704141042786,-97.7341959625483
862,Pluckers Wing Bar,78704,30.2367349329516,-97.7908436537663
863,Dolce Vita,78751,30.30489,-97.72621
864,El Chilito,78757,30.3398,-97.73877
865,Coco's Cafe,78705,30.2825503330558,-97.7422962817638
866,Taqueria Chapala,78735,30.235807,-97.85538
867,La Hawaiina,78741,30.23118,-97.73331
868,The Great Y'all,78751,30.3152751,-97.7166412
869,Somethin' Italian,78702,30.26315,-97.72591
870,Taqueria Los Altos,78722,30.29092,-97.72166
871,Taqueria Mi Trailita,78723,30.30002,-97.68539
872,Henbit at Faregrounds,78704,30.26368,-97.74367
873,Brooklyn Pie,78756,30.329151,-97.739602
874,Buca di Beppo Italian Restaurant,78759,30.3845725942689,-97.7368895803566
875,House Park Bar-B-Q,78703,30.2766637,-97.7504605
876,El Sunzal Restaurant,78702,30.25998,-97.71209
877,Pollo Regio,78757,30.36272,-97.71852
878,Lupe Tortilla,78759,30.3870148827449,-97.7339748464585
879,Tacos and Tequila,78703,30.2727939974674,-97.7606394828728
880,Papalote Taco House,78704,30.22661,-97.76223
881,Cafe 605,78701,30.2602938562632,-97.7391567081213
882,Mighty Fine Burgers Fries & Shakes,78745,30.226993,-97.821132
883,Hyde Park Bar & Grill WestGate,78745,30.23168,-97.80012
884,Tam Deli & Cafe,78753,30.35204,-97.70961
885,Central Market Cafe,78756,30.306971951563,-97.7401786868401
886,Stinson's,78705,30.2912379,-97.7227807
887,Corona Coffee,78723,30.31236,-97.70467
888,Taco hot,78753,30.3504239156208,-97.6764644833017
889,Grand Lux Cafe,78758,30.4024095029559,-97.7263659692529
890,Manna Korean Restaurant,78752,30.33611,-97.72068
891,Shoal Creek Saloon,78703,30.2742751657888,-97.7523102139017
892,Abo Youssef 2,78756,30.30863,-97.74246
893,Hunan Riverplace,78730,30.3928745775249,-97.8447672583359
894,Mom's Taste,78752,30.33096,-97.71514
895,Newk's Eatery,78759,30.3951521427765,-97.7509877814021
896,Raising Cane's,78741,30.23956,-97.72701
897,Mi Cabana,78745,30.2149397134781,-97.7530357986689
898,Rico's Tacos,78745,30.22925,-97.78835
899,Leroy and Lewis Barbecue,78704,30.227405,-97.762673
900,More Home Slice Pizza,78704,30.249255,-97.749626
901,Cherry Creek Catfish,78745,30.2146892056764,-97.7993884507873
902,El Meson,78744,30.2077252417803,-97.7210504561663
903,Teji's Indian Restaurant and Grocery,78705,30.2839763948773,-97.7421483663718
904,Noori's Grill,78757,30.35679,-97.73269
905,Green Lunch,78701,30.26962,-97.74421
906,Ross' Old Austin Cafe,78753,30.3884431070727,-97.6838314533234
907,Chuy's,78753,30.3751687,-97.6905747
908,The Soup Peddler Real Food & Juice Bar,78751,30.30608,-97.71523
909,Alta's Cafe,78701,30.2605183045347,-97.7417610626885
